{"type":"FeatureCollection","properties":{"exceededTransferLimit":false},"features":[
{"geometry":{"type":"Point","coordinates":[8.318043480989003,49.01077303984419]},"type":"Feature","properties":{"name":"Fettweisstraße (Wertstoffstation)","gruppenname_de":"Altglascontainer"}},
{"geometry":{"type":"Point","coordinates":[8.322817784178914,49.005154781840645]},"type":"Feature","properties":{"name":"Waidweg 1b","gruppenname_de":"Altglascontainer"}},
{"geometry":{"type":"Point","coordinates":[8.326791756722741,49.005999136709946]},"type":"Feature","properties":{"name":"Hahnenstraße/Inselstraße (Schlaucherplatz)","gruppenname_de":"Altglascontainer"}},
{"geometry":{"type":"Point","coordinates":[8.332072411492248,49.00520232194568]},"type":"Feature","properties":{"name":"Kastenwörtstraße/Turnerstraße","gruppenname_de":"Altglascontainer"}},
{"geometry":{"type":"Point","coordinates":[8.333014254643459,48.99551465870548]},"type":"Feature","properties":{"name":"Kleiner Anger/Rheinstrandallee","gruppenname_de":"Altglascontainer"}},
{"geometry":{"type":"Point","coordinates":[8.333475811731422,49.00060366943419]},"type":"Feature","properties":{"name":"Agathenstraße/Valentinstraße","gruppenname_de":"Altglascontainer"}},
{"geometry":{"type":"Point","coordinates":[8.33413382947363,49.009186085602366]},"type":"Feature","properties":{"name":"Hansastraße/Fettweisstraße (Steuermann)","gruppenname_de":"Altglascontainer"}},
{"geometry":{"type":"Point","coordinates":[8.334340502176119,49.03141901226428]},"type":"Feature","properties":{"name":"Untere Straße/Eggensteiner Straße","gruppenname_de":"Altglascontainer"}},
{"geometry":{"type":"Point","coordinates":[8.336072240244865,48.99684387208325]},"type":"Feature","properties":{"name":"Pappelallee/Falterweg (bei EDEKA)","gruppenname_de":"Altglascontainer"}},
{"geometry":{"type":"Point","coordinates":[8.336580833121051,48.99392456047881]},"type":"Feature","properties":{"name":"Panoramaweg/Am Anger (beim REWE-Markt)","gruppenname_de":"Altglascontainer"}},
{"geometry":{"type":"Point","coordinates":[8.336938908779839,49.036931697606285]},"type":"Feature","properties":{"name":"Rheinbergstraße/Jakob-Dörr-Straße","gruppenname_de":"Altglascontainer"}},
{"geometry":{"type":"Point","coordinates":[8.33827391398817,49.00247067405956]},"type":"Feature","properties":{"name":"Agathenstraße (vor Nr. 24)","gruppenname_de":"Altglascontainer"}},
{"geometry":{"type":"Point","coordinates":[8.338313088619392,49.03392724052319]},"type":"Feature","properties":{"name":"Östliche Rheinbrückenstraße/Eggensteiner Straße","gruppenname_de":"Altglascontainer"}},
{"geometry":{"type":"Point","coordinates":[8.338545683107721,49.00795179459451]},"type":"Feature","properties":{"name":"Daxlander Straße (bei Friedhof)","gruppenname_de":"Altglascontainer"}},
{"geometry":{"type":"Point","coordinates":[8.338811849434846,48.99803191584277]},"type":"Feature","properties":{"name":"Parkplatz (vor Rheinstrandhalle)","gruppenname_de":"Altglascontainer"}},
{"geometry":{"type":"Point","coordinates":[8.34059798947718,49.03051098911675]},"type":"Feature","properties":{"name":"Elsässer Platz/Saarlandstraße","gruppenname_de":"Altglascontainer"}},
{"geometry":{"type":"Point","coordinates":[8.341401998724479,49.01799545847444]},"type":"Feature","properties":{"name":"Nordbeckenstraße 1 (Wertstoffstation) ","gruppenname_de":"Altglascontainer"}},
{"geometry":{"type":"Point","coordinates":[8.341654804408371,48.99835641074832]},"type":"Feature","properties":{"name":"Thomas-Mann-Straße (beim Trafo)","gruppenname_de":"Altglascontainer"}},
{"geometry":{"type":"Point","coordinates":[8.342138469035403,48.99574007045355]},"type":"Feature","properties":{"name":"Lindenallee (bei Nr. 2)","gruppenname_de":"Altglascontainer"}},
{"geometry":{"type":"Point","coordinates":[8.342447726648427,49.00218578601718]},"type":"Feature","properties":{"name":"August-Dosenbach-Straße/Rheinhafenstraße","gruppenname_de":"Altglascontainer"}},
{"geometry":{"type":"Point","coordinates":[8.342886512342165,49.02943322889167]},"type":"Feature","properties":{"name":"Sudetenstraße/Östliche Rheinbrückenstraße","gruppenname_de":"Altglascontainer"}},
{"geometry":{"type":"Point","coordinates":[8.344189378524607,48.99390809444617]},"type":"Feature","properties":{"name":"Hohlohstraße/Brandenkopfstraße","gruppenname_de":"Altglascontainer"}},
{"geometry":{"type":"Point","coordinates":[8.34466166059875,49.015125505875005]},"type":"Feature","properties":{"name":"Werftstraße (bei Toilettenhaus, schräg gegenüber Anlegestelle MS Karlsruhe)","gruppenname_de":"Altglascontainer"}},
{"geometry":{"type":"Point","coordinates":[8.345233633211448,49.025331231371524]},"type":"Feature","properties":{"name":"Saarlandstraße (gegenüber Nr. 181)","gruppenname_de":"Altglascontainer"}},
{"geometry":{"type":"Point","coordinates":[8.347011789027583,49.03854627969618]},"type":"Feature","properties":{"name":"Egon-Eiermann-Allee (gegenüber Nr. 19)","gruppenname_de":"Altglascontainer"}},
{"geometry":{"type":"Point","coordinates":[8.34739945609019,49.03314680576199]},"type":"Feature","properties":{"name":"Sudetenstraße/Pionierstraße","gruppenname_de":"Altglascontainer"}},
{"geometry":{"type":"Point","coordinates":[8.349390508137,49.03114028801949]},"type":"Feature","properties":{"name":"Ferdinand-Keller-Straße/Julius-Bergmann-Straße","gruppenname_de":"Altglascontainer"}},
{"geometry":{"type":"Point","coordinates":[8.35053264864713,48.99903308762906]},"type":"Feature","properties":{"name":"Eichelbergstraße/Pulverhausstraße (bei der Kirche)","gruppenname_de":"Altglascontainer"}},
{"geometry":{"type":"Point","coordinates":[8.35202422841282,49.004030504115356]},"type":"Feature","properties":{"name":"Zeppelinstraße/Konradin-Kreutzer-Straße","gruppenname_de":"Altglascontainer"}},
{"geometry":{"type":"Point","coordinates":[8.352351713741246,48.995076200248846]},"type":"Feature","properties":{"name":"Heidenstückerweg/Bernsteinstraße","gruppenname_de":"Altglascontainer"}},
{"geometry":{"type":"Point","coordinates":[8.353386139062248,49.036959863431655]},"type":"Feature","properties":{"name":"Grünhutstraße (bei Nr. 1)","gruppenname_de":"Altglascontainer"}},
{"geometry":{"type":"Point","coordinates":[8.353602867506043,49.01602779153653]},"type":"Feature","properties":{"name":"Rheinstraße/An der Rainmühle","gruppenname_de":"Altglascontainer"}},
{"geometry":{"type":"Point","coordinates":[8.354085687716735,49.02055029358413]},"type":"Feature","properties":{"name":"Borsigstraße 9 (bei ALDI)","gruppenname_de":"Altglascontainer"}},
{"geometry":{"type":"Point","coordinates":[8.35443521231232,48.99717820796605]},"type":"Feature","properties":{"name":"Edelbergstraße/Bernsteinstraße","gruppenname_de":"Altglascontainer"}},
{"geometry":{"type":"Point","coordinates":[8.354478551533186,49.00034114574442]},"type":"Feature","properties":{"name":"Hopfenstraße/Altfeldstraße","gruppenname_de":"Altglascontainer"}},
{"geometry":{"type":"Point","coordinates":[8.35516766086577,49.00556388784513]},"type":"Feature","properties":{"name":"Durmersheimer Straße (bei Friedhof)","gruppenname_de":"Altglascontainer"}},
{"geometry":{"type":"Point","coordinates":[8.355211256106477,49.0119449105331]},"type":"Feature","properties":{"name":"Lameystraße (auf dem Parkplatz)","gruppenname_de":"Altglascontainer"}},
{"geometry":{"type":"Point","coordinates":[8.3553650153438,49.01132575199619]},"type":"Feature","properties":{"name":"Sternstraße (auf dem Parkplatz)","gruppenname_de":"Altglascontainer"}},
{"geometry":{"type":"Point","coordinates":[8.355776021535696,49.01272692164651]},"type":"Feature","properties":{"name":"Lameystraße/Rheinstraße","gruppenname_de":"Altglascontainer"}},
{"geometry":{"type":"Point","coordinates":[8.356711580971544,49.02830162606315]},"type":"Feature","properties":{"name":"Daimlerstraße (gegenüber Nr. 20/an der Straßenecke)","gruppenname_de":"Altglascontainer"}},
{"geometry":{"type":"Point","coordinates":[8.357617039658782,49.01518825290779]},"type":"Feature","properties":{"name":"Steubenstraße/Sonnenstraße","gruppenname_de":"Altglascontainer"}},
{"geometry":{"type":"Point","coordinates":[8.357918795440845,49.02416824547648]},"type":"Feature","properties":{"name":"Karlsruher Weg/Binger Straße","gruppenname_de":"Altglascontainer"}},
{"geometry":{"type":"Point","coordinates":[8.359041236795058,48.9973352123983]},"type":"Feature","properties":{"name":"Herrmann-Leichtlin-Straße (gegenüber Nr. 24)","gruppenname_de":"Altglascontainer"}},
{"geometry":{"type":"Point","coordinates":[8.359162636020905,48.98533180261123]},"type":"Feature","properties":{"name":"Eugen-Geck-Straße (vor Nr. 5 a)","gruppenname_de":"Altglascontainer"}},
{"geometry":{"type":"Point","coordinates":[8.35936198835211,49.02816424745093]},"type":"Feature","properties":{"name":"Binger Straße/Durlacher Weg","gruppenname_de":"Altglascontainer"}},
{"geometry":{"type":"Point","coordinates":[8.359958344834922,48.99536730766689]},"type":"Feature","properties":{"name":"Hornisgrindestraße/Edelbergstraße","gruppenname_de":"Altglascontainer"}},
{"geometry":{"type":"Point","coordinates":[8.360208141162607,49.01737326981968]},"type":"Feature","properties":{"name":"Keplerstraße/Bodelschwinghstraße","gruppenname_de":"Altglascontainer"}},
{"geometry":{"type":"Point","coordinates":[8.36024266431729,49.00596196805797]},"type":"Feature","properties":{"name":"Liststraße/Kohlenstraße","gruppenname_de":"Altglascontainer"}},
{"geometry":{"type":"Point","coordinates":[8.36073149695219,49.010111778181404]},"type":"Feature","properties":{"name":"Weinbrennerstraße (Nr. 108)/Am Entenfang ","gruppenname_de":"Altglascontainer"}},
{"geometry":{"type":"Point","coordinates":[8.360822894244142,48.98734287419457]},"type":"Feature","properties":{"name":"Rudolf-Breitscheid-Straße (am Marktplatz)","gruppenname_de":"Altglascontainer"}},
{"geometry":{"type":"Point","coordinates":[8.361656265824802,49.01388359372468]},"type":"Feature","properties":{"name":"Seldeneckstraße/Hardtstraße (Fliederplatz)","gruppenname_de":"Altglascontainer"}},
{"geometry":{"type":"Point","coordinates":[8.362581888096924,48.98451841384469]},"type":"Feature","properties":{"name":"Otto-Wels-Straße/Wilhelm-Leuschner-Straße","gruppenname_de":"Altglascontainer"}},
{"geometry":{"type":"Point","coordinates":[8.362589184213682,48.986041135648904]},"type":"Feature","properties":{"name":"Otto-Wels-Straße 29","gruppenname_de":"Altglascontainer"}},
{"geometry":{"type":"Point","coordinates":[8.362971991390493,49.02029373608124]},"type":"Feature","properties":{"name":"Bodelschwinghstraße/Siemensallee","gruppenname_de":"Altglascontainer"}},
{"geometry":{"type":"Point","coordinates":[8.363193490786774,48.989673665512704]},"type":"Feature","properties":{"name":"Albert-Braun-Straße (bei Nr. 5 a - d)","gruppenname_de":"Altglascontainer"}},
{"geometry":{"type":"Point","coordinates":[8.363232910658036,49.02094622099611]},"type":"Feature","properties":{"name":"Berliner Straße/Karlsruher Weg","gruppenname_de":"Altglascontainer"}},
{"geometry":{"type":"Point","coordinates":[8.363427872024198,49.01776867931973]},"type":"Feature","properties":{"name":"Hertzstraße (bei Kondima)","gruppenname_de":"Altglascontainer"}},
{"geometry":{"type":"Point","coordinates":[8.36384070808435,49.03088073830464]},"type":"Feature","properties":{"name":"Landauer Straße/Berliner Straße","gruppenname_de":"Altglascontainer"}},
{"geometry":{"type":"Point","coordinates":[8.3640160197019,49.027403636584154]},"type":"Feature","properties":{"name":"Durlacher Weg/Berliner Straße","gruppenname_de":"Altglascontainer"}},
{"geometry":{"type":"Point","coordinates":[8.364022217179075,48.98876707711262]},"type":"Feature","properties":{"name":"Bonhoefferstraße (vor der Schule)","gruppenname_de":"Altglascontainer"}},
{"geometry":{"type":"Point","coordinates":[8.364388014756047,49.0349825645544]},"type":"Feature","properties":{"name":"Hertzstraße/Frankenthaler Straße","gruppenname_de":"Altglascontainer"}},
{"geometry":{"type":"Point","coordinates":[8.364428311383044,48.987086111365656]},"type":"Feature","properties":{"name":"Bernhard-Lichtenberg-Straße (bei Nr. 14)","gruppenname_de":"Altglascontainer"}},
{"geometry":{"type":"Point","coordinates":[8.364736119115152,49.03296353011795]},"type":"Feature","properties":{"name":"Germersheimer Straße/Hertzstraße","gruppenname_de":"Altglascontainer"}},
{"geometry":{"type":"Point","coordinates":[8.365059127240148,49.0141875290253]},"type":"Feature","properties":{"name":"Seldeneckstraße/Tannhäuserstraße","gruppenname_de":"Altglascontainer"}},
{"geometry":{"type":"Point","coordinates":[8.365104160683707,49.01024492177368]},"type":"Feature","properties":{"name":"Sophienstraße/Peter-und-Paul-Platz","gruppenname_de":"Altglascontainer"}},
{"geometry":{"type":"Point","coordinates":[8.365519377279368,49.02174098884935]},"type":"Feature","properties":{"name":"Hertzstraße (gegenüber Universität)","gruppenname_de":"Altglascontainer"}},
{"geometry":{"type":"Point","coordinates":[8.365747137933148,48.984286670429945]},"type":"Feature","properties":{"name":"Hermann-Müller-Würtz-Straße (gegenüber Nr. 2)","gruppenname_de":"Altglascontainer"}},
{"geometry":{"type":"Point","coordinates":[8.365748197046827,49.027349534744005]},"type":"Feature","properties":{"name":"Madenburgweg/Hertzstraße","gruppenname_de":"Altglascontainer"}},
{"geometry":{"type":"Point","coordinates":[8.36633615338348,49.0142179047779]},"type":"Feature","properties":{"name":"Seldeneckstraße/Tristanstraße","gruppenname_de":"Altglascontainer"}},
{"geometry":{"type":"Point","coordinates":[8.366464292668816,48.9893436555168]},"type":"Feature","properties":{"name":"Goerdelerstraße (vor Tiefgarage)","gruppenname_de":"Altglascontainer"}},
{"geometry":{"type":"Point","coordinates":[8.36662037494943,49.00965509241853]},"type":"Feature","properties":{"name":"Sophienstraße (vor Nr. 193)","gruppenname_de":"Altglascontainer"}},
{"geometry":{"type":"Point","coordinates":[8.366796208488264,49.01624315077228]},"type":"Feature","properties":{"name":"Nibelungenstraße/Isoldestraße","gruppenname_de":"Altglascontainer"}},
{"geometry":{"type":"Point","coordinates":[8.36699025986093,49.0181222684193]},"type":"Feature","properties":{"name":"Moltkestraße (bei Erich-Kästner-Schule)","gruppenname_de":"Altglascontainer"}},
{"geometry":{"type":"Point","coordinates":[8.367891410228122,49.02366171393805]},"type":"Feature","properties":{"name":"Kesselbergweg/St.-Barbara-Weg","gruppenname_de":"Altglascontainer"}},
{"geometry":{"type":"Point","coordinates":[8.36830927954881,49.00500837035972]},"type":"Feature","properties":{"name":"Kriegsstaße/Wilhelm-Baur-Straße","gruppenname_de":"Altglascontainer"}},
{"geometry":{"type":"Point","coordinates":[8.368534470122565,48.98326889130675]},"type":"Feature","properties":{"name":"Bernhard-Lichtenberg-Straße (bei Nr. 102)","gruppenname_de":"Altglascontainer"}},
{"geometry":{"type":"Point","coordinates":[8.368591995538393,48.996098246487335]},"type":"Feature","properties":{"name":"Akazienstraße/Ahornweg","gruppenname_de":"Altglascontainer"}},
{"geometry":{"type":"Point","coordinates":[8.369797687363283,49.00927190526429]},"type":"Feature","properties":{"name":"Geranienstraße/Sophienstraße","gruppenname_de":"Altglascontainer"}},
{"geometry":{"type":"Point","coordinates":[8.370427531243294,49.02637917806381]},"type":"Feature","properties":{"name":"Wilhelm-Hausenstein-Allee/August-Bebel-Straße","gruppenname_de":"Altglascontainer"}},
{"geometry":{"type":"Point","coordinates":[8.370614748233344,49.02819126730674]},"type":"Feature","properties":{"name":"Stresemannstraße/Wilhelm-Hausenstein-Allee","gruppenname_de":"Altglascontainer"}},
{"geometry":{"type":"Point","coordinates":[8.370793577653595,49.03908947918516]},"type":"Feature","properties":{"name":"Hertzstraße/Schweigener Straße","gruppenname_de":"Altglascontainer"}},
{"geometry":{"type":"Point","coordinates":[8.371017110835602,49.00712849481503]},"type":"Feature","properties":{"name":"Yorckstraße (vor Nr. 49)","gruppenname_de":"Altglascontainer"}},
{"geometry":{"type":"Point","coordinates":[8.371168524571736,49.00264137344051]},"type":"Feature","properties":{"name":"Gustav-Heller-Platz","gruppenname_de":"Altglascontainer"}},
{"geometry":{"type":"Point","coordinates":[8.371539546750327,49.05266293284798]},"type":"Feature","properties":{"name":"Am Junkertschritt/Bachenweg (Wertstoffstation)","gruppenname_de":"Altglascontainer"}},
{"geometry":{"type":"Point","coordinates":[8.371590359056112,49.008899098204864]},"type":"Feature","properties":{"name":"Sophienstraße/Grillparzerstraße","gruppenname_de":"Altglascontainer"}},
{"geometry":{"type":"Point","coordinates":[8.371626255734862,48.98442126493296]},"type":"Feature","properties":{"name":"Großoberfeld (Wertstoffstation)","gruppenname_de":"Altglascontainer"}},
{"geometry":{"type":"Point","coordinates":[8.372793219391184,49.04405831124604]},"type":"Feature","properties":{"name":"Oberfeldstraße (gegenüber Hotel)","gruppenname_de":"Altglascontainer"}},
{"geometry":{"type":"Point","coordinates":[8.373054190761026,49.03537388420307]},"type":"Feature","properties":{"name":"Kaiserslauterner Straße/Trierer Straße","gruppenname_de":"Altglascontainer"}},
{"geometry":{"type":"Point","coordinates":[8.373193893160733,49.00860641173388]},"type":"Feature","properties":{"name":"Yorckstraße/Sophienstraße","gruppenname_de":"Altglascontainer"}},
{"geometry":{"type":"Point","coordinates":[8.373787424441975,49.004185279436626]},"type":"Feature","properties":{"name":"Eisenlohrstraße/Bunsenstraße","gruppenname_de":"Altglascontainer"}},
{"geometry":{"type":"Point","coordinates":[8.374480156680086,49.02337780718011]},"type":"Feature","properties":{"name":"Heinrich-Köhler-Platz","gruppenname_de":"Altglascontainer"}},
{"geometry":{"type":"Point","coordinates":[8.374546394855864,49.050067887228685]},"type":"Feature","properties":{"name":"Sanddornweg","gruppenname_de":"Altglascontainer"}},
{"geometry":{"type":"Point","coordinates":[8.374980865043081,49.03019985177537]},"type":"Feature","properties":{"name":"Josef-Schofer-Straße (beim Penny-Markt)","gruppenname_de":"Altglascontainer"}},
{"geometry":{"type":"Point","coordinates":[8.375206297263587,49.01328182569665]},"type":"Feature","properties":{"name":"Blücherstraße/Nördliche Hildapromenade","gruppenname_de":"Altglascontainer"}},
{"geometry":{"type":"Point","coordinates":[8.375618169431485,49.00813875444281]},"type":"Feature","properties":{"name":"Gutenbergplatz/Sophienstraße","gruppenname_de":"Altglascontainer"}},
{"geometry":{"type":"Point","coordinates":[8.375754469911218,48.98402661815517]},"type":"Feature","properties":{"name":"Litzenhardstraße (Parkplatz Gartenbauamt Bulach)","gruppenname_de":"Altglascontainer"}},
{"geometry":{"type":"Point","coordinates":[8.377122020184027,48.9886627701518]},"type":"Feature","properties":{"name":"Grünwinkler Straße/Landgrabenstraße","gruppenname_de":"Altglascontainer"}},
{"geometry":{"type":"Point","coordinates":[8.377210583291236,49.04617975432952]},"type":"Feature","properties":{"name":"Unterfeldstraße (gegenüber Gymnasium)","gruppenname_de":"Altglascontainer"}},
{"geometry":{"type":"Point","coordinates":[8.377404397508704,49.00535259974144]},"type":"Feature","properties":{"name":"Weinbrennerplatz","gruppenname_de":"Altglascontainer"}},
{"geometry":{"type":"Point","coordinates":[8.37925379511678,48.991354611753536]},"type":"Feature","properties":{"name":"Bannwaldallee/Landgrabenstraße","gruppenname_de":"Altglascontainer"}},
{"geometry":{"type":"Point","coordinates":[8.37932175446463,48.99624491874143]},"type":"Feature","properties":{"name":"Europahalle (bei SVK Beiertheim)","gruppenname_de":"Altglascontainer"}},
{"geometry":{"type":"Point","coordinates":[8.379417249870908,49.01527396265452]},"type":"Feature","properties":{"name":"Freydorfstraße/ Moltkestraße","gruppenname_de":"Altglascontainer"}},
{"geometry":{"type":"Point","coordinates":[8.380327359136386,49.03589741297856]},"type":"Feature","properties":{"name":"Alter Postweg/Flughafenstraße","gruppenname_de":"Altglascontainer"}},
{"geometry":{"type":"Point","coordinates":[8.380795161312204,48.99783346357572]},"type":"Feature","properties":{"name":"Ernst-Frey-Straße/Steinhäuserstraße","gruppenname_de":"Altglascontainer"}},
{"geometry":{"type":"Point","coordinates":[8.381323748889951,49.007872640074595]},"type":"Feature","properties":{"name":"Sophienstraße/Scheffelstraße","gruppenname_de":"Altglascontainer"}},
{"geometry":{"type":"Point","coordinates":[8.382399921617194,49.012708424974065]},"type":"Feature","properties":{"name":"Südliche Hildapromenade/Kochstraße","gruppenname_de":"Altglascontainer"}},
{"geometry":{"type":"Point","coordinates":[8.382529383222657,49.04678485460393]},"type":"Feature","properties":{"name":"Dürerstraße/Holbeinstraße","gruppenname_de":"Altglascontainer"}},
{"geometry":{"type":"Point","coordinates":[8.382824954104006,49.00016663955594]},"type":"Feature","properties":{"name":"Römhildtstraße/Lorenzstraße","gruppenname_de":"Altglascontainer"}},
{"geometry":{"type":"Point","coordinates":[8.383574756312086,49.04402385017212]},"type":"Feature","properties":{"name":"Neureuter Platz (Parkplatz bei Badnerlandhalle)","gruppenname_de":"Altglascontainer"}},
{"geometry":{"type":"Point","coordinates":[8.383832491051885,49.01751931914804]},"type":"Feature","properties":{"name":"Knielinger Allee/Erzbergerstraße (gegenüber Penny-Markt)","gruppenname_de":"Altglascontainer"}},
{"geometry":{"type":"Point","coordinates":[8.384626805680641,49.02034798815659]},"type":"Feature","properties":{"name":"Erzbergerstraße/Michiganstraße","gruppenname_de":"Altglascontainer"}},
{"geometry":{"type":"Point","coordinates":[8.384699595269817,49.023367146757884]},"type":"Feature","properties":{"name":"Erzbergerstraße/Flughafenkasino (vor Nr. 111)","gruppenname_de":"Altglascontainer"}},
{"geometry":{"type":"Point","coordinates":[8.384853040995086,49.00530229308633]},"type":"Feature","properties":{"name":"Kriegsstraße/Lessingstraße (vor Versorgungsamt)","gruppenname_de":"Altglascontainer"}},
{"geometry":{"type":"Point","coordinates":[8.38547161550981,48.99401624345593]},"type":"Feature","properties":{"name":"Wartburgstraße/Hohenzollernstraße","gruppenname_de":"Altglascontainer"}},
{"geometry":{"type":"Point","coordinates":[8.385915067053206,49.051027068506464]},"type":"Feature","properties":{"name":"Unterfeldstraße (bei Haltestelle Hallenbad)","gruppenname_de":"Altglascontainer"}},
{"geometry":{"type":"Point","coordinates":[8.386073937704447,48.997458881720966]},"type":"Feature","properties":{"name":"Graf-Rhena-Straße (bei Nr. 23)","gruppenname_de":"Altglascontainer"}},
{"geometry":{"type":"Point","coordinates":[8.386145371735868,49.01252626128278]},"type":"Feature","properties":{"name":"Riefstahlstraße/Hoffstraße","gruppenname_de":"Altglascontainer"}},
{"geometry":{"type":"Point","coordinates":[8.386199568893586,49.008814108144634]},"type":"Feature","properties":{"name":"Hans-Sachs-Straße (beim REWE Markt)","gruppenname_de":"Altglascontainer"}},
{"geometry":{"type":"Point","coordinates":[8.386663405007384,49.02077414283238]},"type":"Feature","properties":{"name":"Rhode-Island-Allee (bei Nr. 8)","gruppenname_de":"Altglascontainer"}},
{"geometry":{"type":"Point","coordinates":[8.38677160798167,49.03175683773306]},"type":"Feature","properties":{"name":"Flughafenstraße/Erzbergerstraße","gruppenname_de":"Altglascontainer"}},
{"geometry":{"type":"Point","coordinates":[8.387593226005139,48.99522368181754]},"type":"Feature","properties":{"name":"Ebertstraße (vor Nr. 44)","gruppenname_de":"Altglascontainer"}},
{"geometry":{"type":"Point","coordinates":[8.38795567735762,48.99876983428129]},"type":"Feature","properties":{"name":"Südendstraße/Boeckhstraße","gruppenname_de":"Altglascontainer"}},
{"geometry":{"type":"Point","coordinates":[8.388440979613462,49.02976738721122]},"type":"Feature","properties":{"name":"Kanalweg (vor Nr. 111)","gruppenname_de":"Altglascontainer"}},
{"geometry":{"type":"Point","coordinates":[8.38874054081125,48.991676303721135]},"type":"Feature","properties":{"name":"Breite Straße/Gebhartstraße","gruppenname_de":"Altglascontainer"}},
{"geometry":{"type":"Point","coordinates":[8.389277293176715,49.003562417852194]},"type":"Feature","properties":{"name":"Jollystraße/Otto-Sachs-Straße","gruppenname_de":"Altglascontainer"}},
{"geometry":{"type":"Point","coordinates":[8.389434645675125,49.007369132947055]},"type":"Feature","properties":{"name":"Leopoldstraße/Sophienstraße","gruppenname_de":"Altglascontainer"}},
{"geometry":{"type":"Point","coordinates":[8.389578452477407,49.00973410092135]},"type":"Feature","properties":{"name":"Amalienstraße/Leopoldstraße","gruppenname_de":"Altglascontainer"}},
{"geometry":{"type":"Point","coordinates":[8.389991385555577,49.026039732152796]},"type":"Feature","properties":{"name":"Tennesseeallee (vor Nr. 101)","gruppenname_de":"Altglascontainer"}},
{"geometry":{"type":"Point","coordinates":[8.390129149390948,49.025013923719655]},"type":"Feature","properties":{"name":"Tennesseeallee (vor Nr. 92)","gruppenname_de":"Altglascontainer"}},
{"geometry":{"type":"Point","coordinates":[8.390169178319978,48.99421107010632]},"type":"Feature","properties":{"name":"Gebhartstraße (Kirche)","gruppenname_de":"Altglascontainer"}},
{"geometry":{"type":"Point","coordinates":[8.390449769793959,49.03667164867241]},"type":"Feature","properties":{"name":"Sanddornweg/Jasminweg","gruppenname_de":"Altglascontainer"}},
{"geometry":{"type":"Point","coordinates":[8.390965605786274,49.01591622429499]},"type":"Feature","properties":{"name":"Willy_Andreas-Allee (bei Universität)","gruppenname_de":"Altglascontainer"}},
{"geometry":{"type":"Point","coordinates":[8.391155615638565,49.051582733012616]},"type":"Feature","properties":{"name":"Hochstettener Ring/Leopoldshafener Straße","gruppenname_de":"Altglascontainer"}},
{"geometry":{"type":"Point","coordinates":[8.39123967459293,49.04395462882822]},"type":"Feature","properties":{"name":"Am Sandfeld/vor Parkplatz Nr. 1 (Getränkemarkt)","gruppenname_de":"Altglascontainer"}},
{"geometry":{"type":"Point","coordinates":[8.391274529225978,49.03439306482676]},"type":"Feature","properties":{"name":"Lavendelweg/Arnikaweg","gruppenname_de":"Altglascontainer"}},
{"geometry":{"type":"Point","coordinates":[8.391555774673412,49.04934514553714]},"type":"Feature","properties":{"name":"Liedolsheimer Ring/Leopoldshafener Straße","gruppenname_de":"Altglascontainer"}},
{"geometry":{"type":"Point","coordinates":[8.391639144620068,49.02799731515452]},"type":"Feature","properties":{"name":"Tennesseeallee (vor Nr. 153)","gruppenname_de":"Altglascontainer"}},
{"geometry":{"type":"Point","coordinates":[8.39176422604015,49.01117036781861]},"type":"Feature","properties":{"name":"Stephanienstraße (bei Zollamt)","gruppenname_de":"Altglascontainer"}},
{"geometry":{"type":"Point","coordinates":[8.39278323088101,49.054493282343046]},"type":"Feature","properties":{"name":"Hermann-Höpker-Aschoff-Straße (bei Nr. 1/REWE)","gruppenname_de":"Altglascontainer"}},
{"geometry":{"type":"Point","coordinates":[8.393203865216165,48.99260751236547]},"type":"Feature","properties":{"name":"Breite Straße/Marie-Alexandra-Straße","gruppenname_de":"Altglascontainer"}},
{"geometry":{"type":"Point","coordinates":[8.393385874672507,49.01696578143246]},"type":"Feature","properties":{"name":"Willy-Andreas-Allee (bei Verkehrsübungsplatz)","gruppenname_de":"Altglascontainer"}},
{"geometry":{"type":"Point","coordinates":[8.39400347810847,48.988317950288355]},"type":"Feature","properties":{"name":"Donaustraße (am Wendehammer)","gruppenname_de":"Altglascontainer"}},
{"geometry":{"type":"Point","coordinates":[8.39420640034464,49.004495967742685]},"type":"Feature","properties":{"name":"Gartenstraße/Karlstraße","gruppenname_de":"Altglascontainer"}},
{"geometry":{"type":"Point","coordinates":[8.394300017373654,49.00857694294299]},"type":"Feature","properties":{"name":"Amalienstraße/Stephanplatz (bei Karl-Apotheke)","gruppenname_de":"Altglascontainer"}},
{"geometry":{"type":"Point","coordinates":[8.394756176485025,49.02518672765953]},"type":"Feature","properties":{"name":"Kentuckyallee (vor Nr. 62)","gruppenname_de":"Altglascontainer"}},
{"geometry":{"type":"Point","coordinates":[8.395476515748403,49.01325145879997]},"type":"Feature","properties":{"name":"Bismarckstraße/Wörthstraße","gruppenname_de":"Altglascontainer"}},
{"geometry":{"type":"Point","coordinates":[8.39632525391031,48.99804325180604]},"type":"Feature","properties":{"name":"Südendstraße/Beiertheimer Allee (Parkplatz)","gruppenname_de":"Altglascontainer"}},
{"geometry":{"type":"Point","coordinates":[8.396383386587312,49.00214313264142]},"type":"Feature","properties":{"name":"Mathystraße/Alter Brauhof","gruppenname_de":"Altglascontainer"}},
{"geometry":{"type":"Point","coordinates":[8.396407281773904,49.00331563781851]},"type":"Feature","properties":{"name":"August-Dürr-Straße/Renckstraße","gruppenname_de":"Altglascontainer"}},
{"geometry":{"type":"Point","coordinates":[8.396437790357561,48.98438836725845]},"type":"Feature","properties":{"name":"Links der Alb/Nürnberger Straße","gruppenname_de":"Altglascontainer"}},
{"geometry":{"type":"Point","coordinates":[8.396661758324164,48.994710174171516]},"type":"Feature","properties":{"name":"Ebertstraße","gruppenname_de":"Altglascontainer"}},
{"geometry":{"type":"Point","coordinates":[8.396709160625102,48.99300930051106]},"type":"Feature","properties":{"name":"Victor-Gollancz-Straße/Schwarzwaldstraße","gruppenname_de":"Altglascontainer"}},
{"geometry":{"type":"Point","coordinates":[8.397688386268559,49.01104591883317]},"type":"Feature","properties":{"name":"Passagehof (bei Parkhaus)","gruppenname_de":"Altglascontainer"}},
{"geometry":{"type":"Point","coordinates":[8.397714311647624,49.052421985594506]},"type":"Feature","properties":{"name":"Forlenweg 42","gruppenname_de":"Altglascontainer"}},
{"geometry":{"type":"Point","coordinates":[8.397958266231015,48.98445636920327]},"type":"Feature","properties":{"name":"Nürnberger Straße/Rechts der Alb","gruppenname_de":"Altglascontainer"}},
{"geometry":{"type":"Point","coordinates":[8.398532790059173,49.04235343602288]},"type":"Feature","properties":{"name":"An der Trift/Grüner Weg","gruppenname_de":"Altglascontainer"}},
{"geometry":{"type":"Point","coordinates":[8.399296671562729,49.04645987336935]},"type":"Feature","properties":{"name":"Kirchfeldsiedlung Waldsportplatz (Wertstoffstation)","gruppenname_de":"Altglascontainer"}},
{"geometry":{"type":"Point","coordinates":[8.399524660388572,48.99628943375271]},"type":"Feature","properties":{"name":"Bahnhofstraße (gegenüber Nr. 42)","gruppenname_de":"Altglascontainer"}},
{"geometry":{"type":"Point","coordinates":[8.399812803100788,49.05624112429966]},"type":"Feature","properties":{"name":"Abraham-Lincoln-Allee (gegenüber Fortuna Kirchfeld)","gruppenname_de":"Altglascontainer"}},
{"geometry":{"type":"Point","coordinates":[8.40051383397552,48.96540760403508]},"type":"Feature","properties":{"name":"Frauenalber Straße/Moosalbstraße","gruppenname_de":"Altglascontainer"}},
{"geometry":{"type":"Point","coordinates":[8.400997507585723,49.003886946264444]},"type":"Feature","properties":{"name":"Hermann-Billing-Straße/Beiertheimer Allee","gruppenname_de":"Altglascontainer"}},
{"geometry":{"type":"Point","coordinates":[8.401729536625895,48.99525981641802]},"type":"Feature","properties":{"name":"Am Stadtgarten/Bahnhofplatz","gruppenname_de":"Altglascontainer"}},
{"geometry":{"type":"Point","coordinates":[8.401765425219802,48.98476267776086]},"type":"Feature","properties":{"name":"Nürnberger Straße/Offenburger Straße","gruppenname_de":"Altglascontainer"}},
{"geometry":{"type":"Point","coordinates":[8.402155409037459,48.96836975611641]},"type":"Feature","properties":{"name":"Lützowstraße/Riedschule","gruppenname_de":"Altglascontainer"}},
{"geometry":{"type":"Point","coordinates":[8.403190628469194,49.00824845881727]},"type":"Feature","properties":{"name":"Hebelstraße (bei Rathaus)","gruppenname_de":"Altglascontainer"}},
{"geometry":{"type":"Point","coordinates":[8.403547358451664,48.97304046198237]},"type":"Feature","properties":{"name":"Lange Straße/Rastatter Straße","gruppenname_de":"Altglascontainer"}},
{"geometry":{"type":"Point","coordinates":[8.403710273318335,48.97947536929261]},"type":"Feature","properties":{"name":"Rastatter Straße (Festplatz)","gruppenname_de":"Altglascontainer"}},
{"geometry":{"type":"Point","coordinates":[8.404372865282035,48.9659930925439]},"type":"Feature","properties":{"name":"Allmendstraße (bei Fußgängerbrücke)","gruppenname_de":"Altglascontainer"}},
{"geometry":{"type":"Point","coordinates":[8.404539276391809,48.999288371489286]},"type":"Feature","properties":{"name":"Augartenstraße/Ettlinger Straße","gruppenname_de":"Altglascontainer"}},
{"geometry":{"type":"Point","coordinates":[8.404698465944954,48.97146280238331]},"type":"Feature","properties":{"name":"Tulpenstraße/Arndtstraße","gruppenname_de":"Altglascontainer"}},
{"geometry":{"type":"Point","coordinates":[8.405591705747739,48.99996944108701]},"type":"Feature","properties":{"name":"Wilhelmstraße (beim Grünstreifen)","gruppenname_de":"Altglascontainer"}},
{"geometry":{"type":"Point","coordinates":[8.405647951064305,49.00386952531988]},"type":"Feature","properties":{"name":"Baumeisterstraße/Wilhelmstraße","gruppenname_de":"Altglascontainer"}},
{"geometry":{"type":"Point","coordinates":[8.407395954927894,48.97601488900862]},"type":"Feature","properties":{"name":"Im Grün/Ostendorfplatz","gruppenname_de":"Altglascontainer"}},
{"geometry":{"type":"Point","coordinates":[8.407527790780685,48.97920147124252]},"type":"Feature","properties":{"name":"Wickenweg/Resedenweg","gruppenname_de":"Altglascontainer"}},
{"geometry":{"type":"Point","coordinates":[8.407793946328011,49.0070343981843]},"type":"Feature","properties":{"name":"Lidellplatz","gruppenname_de":"Altglascontainer"}},
{"geometry":{"type":"Point","coordinates":[8.407830039737823,48.98142982230119]},"type":"Feature","properties":{"name":"Am Rüppurrer Schloß/Erlenweg","gruppenname_de":"Altglascontainer"}},
{"geometry":{"type":"Point","coordinates":[8.408119619754494,48.99737750742367]},"type":"Feature","properties":{"name":"Nebeniusstraße/Marienstraße","gruppenname_de":"Altglascontainer"}},
{"geometry":{"type":"Point","coordinates":[8.409215227532874,48.97237331499472]},"type":"Feature","properties":{"name":"Diakonissenstraße (vor dem Krankenhaus)","gruppenname_de":"Altglascontainer"}},
{"geometry":{"type":"Point","coordinates":[8.409645137871658,48.96919781982179]},"type":"Feature","properties":{"name":"Graf-Eberstein-Straße/Tulpenstraße","gruppenname_de":"Altglascontainer"}},
{"geometry":{"type":"Point","coordinates":[8.4097237153062,49.00733629638642]},"type":"Feature","properties":{"name":"Fritz-Erler-Straße (Westseite vor Nr. 14)","gruppenname_de":"Altglascontainer"}},
{"geometry":{"type":"Point","coordinates":[8.41038022477705,49.007009069817]},"type":"Feature","properties":{"name":"Fritz-Erler-Straße (Ostseite vor Nr. 17)","gruppenname_de":"Altglascontainer"}},
{"geometry":{"type":"Point","coordinates":[8.41051807215572,48.96655344344433]},"type":"Feature","properties":{"name":"Adalbert-Stifter-Straße/Battstraße","gruppenname_de":"Altglascontainer"}},
{"geometry":{"type":"Point","coordinates":[8.410841456674898,48.9984636071152]},"type":"Feature","properties":{"name":"Rüppurrer Straße/Augartenstraße/Winterstraße","gruppenname_de":"Altglascontainer"}},
{"geometry":{"type":"Point","coordinates":[8.411098816817274,48.964730384932864]},"type":"Feature","properties":{"name":"Reinhold-Schneider-Straße (Parkplatz Nähe Einkaufszentrum)","gruppenname_de":"Altglascontainer"}},
{"geometry":{"type":"Point","coordinates":[8.412466942011825,49.007816532978886]},"type":"Feature","properties":{"name":"Waldhornplatz","gruppenname_de":"Altglascontainer"}},
{"geometry":{"type":"Point","coordinates":[8.412765330009869,49.00461146346745]},"type":"Feature","properties":{"name":"Philipp-Reis-Straße (Parkplatz gegenüber Nr. 3)","gruppenname_de":"Altglascontainer"}},
{"geometry":{"type":"Point","coordinates":[8.41415164698724,48.97767544144656]},"type":"Feature","properties":{"name":"Kuhlager-Seele-Weg (beim Parkplatz)","gruppenname_de":"Altglascontainer"}},
{"geometry":{"type":"Point","coordinates":[8.414613427755647,49.008469780717434]},"type":"Feature","properties":{"name":"Am Künstlerhaus/Zähringerstraße","gruppenname_de":"Altglascontainer"}},
{"geometry":{"type":"Point","coordinates":[8.41465177953006,48.97202183108397]},"type":"Feature","properties":{"name":"Steinmannstraße (bei Grünabfallcontainer)","gruppenname_de":"Altglascontainer"}},
{"geometry":{"type":"Point","coordinates":[8.416146486331346,49.00528901295536]},"type":"Feature","properties":{"name":"Kriegsstraße (bei Nr. 40)","gruppenname_de":"Altglascontainer"}},
{"geometry":{"type":"Point","coordinates":[8.416448555625362,48.99891408111149]},"type":"Feature","properties":{"name":"Stuttgarter Straße/Sybelstraße","gruppenname_de":"Altglascontainer"}},
{"geometry":{"type":"Point","coordinates":[8.420631876054566,49.00896190317121]},"type":"Feature","properties":{"name":"Ludwig-Wilhelm-Straße/Bernhardstraße","gruppenname_de":"Altglascontainer"}},
{"geometry":{"type":"Point","coordinates":[8.4225127829695,49.01328852125905]},"type":"Feature","properties":{"name":"Parkstraße/Am Fasanengarten","gruppenname_de":"Altglascontainer"}},
{"geometry":{"type":"Point","coordinates":[8.422523913994167,49.018050921369316]},"type":"Feature","properties":{"name":"Hagsfelder Allee 1 ","gruppenname_de":"Altglascontainer"}},
{"geometry":{"type":"Point","coordinates":[8.42316011255648,49.00751166782335]},"type":"Feature","properties":{"name":"Gottesauer Platz","gruppenname_de":"Altglascontainer"}},
{"geometry":{"type":"Point","coordinates":[8.424136309979087,49.005564322145986]},"type":"Feature","properties":{"name":"Gottesauer Straße/Wolfartsweierer Straße","gruppenname_de":"Altglascontainer"}},
{"geometry":{"type":"Point","coordinates":[8.426422379545066,49.011008119360945]},"type":"Feature","properties":{"name":"Rintheimer Straße (bei Nr. 24)","gruppenname_de":"Altglascontainer"}},
{"geometry":{"type":"Point","coordinates":[8.427438168417183,49.00873217022607]},"type":"Feature","properties":{"name":"Gerwigstraße/Veilchenstraße","gruppenname_de":"Altglascontainer"}},
{"geometry":{"type":"Point","coordinates":[8.429705545838727,49.00983779162051]},"type":"Feature","properties":{"name":"Humboldtstraße/Essenweinstraße","gruppenname_de":"Altglascontainer"}},
{"geometry":{"type":"Point","coordinates":[8.43055887169681,49.02943062374682]},"type":"Feature","properties":{"name":"Theodor-Heuss-Allee/Breslauer Straße","gruppenname_de":"Altglascontainer"}},
{"geometry":{"type":"Point","coordinates":[8.432489064679796,49.00401772867554]},"type":"Feature","properties":{"name":"Alter Schlachthof (Nähe Messplatz)","gruppenname_de":"Altglascontainer"}},
{"geometry":{"type":"Point","coordinates":[8.432945133959658,49.01434669396876]},"type":"Feature","properties":{"name":"Haid-und-Neu-Straße/Helmertstraße","gruppenname_de":"Altglascontainer"}},
{"geometry":{"type":"Point","coordinates":[8.433730118685826,49.03659927229086]},"type":"Feature","properties":{"name":"Insterburger Straße (beim Hochhaus)","gruppenname_de":"Altglascontainer"}},
{"geometry":{"type":"Point","coordinates":[8.433797860641379,49.03344072845464]},"type":"Feature","properties":{"name":"Königsberger Straße (beim Einkaufszentrum)","gruppenname_de":"Altglascontainer"}},
{"geometry":{"type":"Point","coordinates":[8.435661625904098,49.036891334826535]},"type":"Feature","properties":{"name":"Insterburger Straße (Parktasche gegenüber Häuserreihe 8)","gruppenname_de":"Altglascontainer"}},
{"geometry":{"type":"Point","coordinates":[8.435866885556615,49.035797162875696]},"type":"Feature","properties":{"name":"Schneidemühler Straße (beim Einkaufszentrum)","gruppenname_de":"Altglascontainer"}},
{"geometry":{"type":"Point","coordinates":[8.43670044488517,49.01159015451743]},"type":"Feature","properties":{"name":"Rintheimer Straße/Dunantstraße","gruppenname_de":"Altglascontainer"}},
{"geometry":{"type":"Point","coordinates":[8.437234796053893,49.00927462518742]},"type":"Feature","properties":{"name":"Theodor-Rehbock-Straße (gegenüber Nr. 9)","gruppenname_de":"Altglascontainer"}},
{"geometry":{"type":"Point","coordinates":[8.438227284424164,49.03918128806659]},"type":"Feature","properties":{"name":"Kolberger Straße/Braunsberger Straße","gruppenname_de":"Altglascontainer"}},
{"geometry":{"type":"Point","coordinates":[8.43830334747423,49.01408891964569]},"type":"Feature","properties":{"name":"Forststraße (bei Nr. 7)","gruppenname_de":"Altglascontainer"}},
{"geometry":{"type":"Point","coordinates":[8.438618701054656,49.03133900511237]},"type":"Feature","properties":{"name":"Königsberger Straße/Tilsiter Straße","gruppenname_de":"Altglascontainer"}},
{"geometry":{"type":"Point","coordinates":[8.43888790907732,49.03788642521377]},"type":"Feature","properties":{"name":"Insterburger Straße (bei Nr. 16 e)","gruppenname_de":"Altglascontainer"}},
{"geometry":{"type":"Point","coordinates":[8.439396217187591,49.03267735474552]},"type":"Feature","properties":{"name":"Königsberger Straße (bei Wendeschleife)","gruppenname_de":"Altglascontainer"}},
{"geometry":{"type":"Point","coordinates":[8.4401756602068,48.9988944170877]},"type":"Feature","properties":{"name":"Maybachstraße 10 b (Wertstoffstation)","gruppenname_de":"Altglascontainer"}},
{"geometry":{"type":"Point","coordinates":[8.440626064710496,49.01631115224673]},"type":"Feature","properties":{"name":"Heilbronner Straße/Staudenplatz","gruppenname_de":"Altglascontainer"}},
{"geometry":{"type":"Point","coordinates":[8.440775478796757,49.027487326154215]},"type":"Feature","properties":{"name":"Am Sportpark/Hagsfelder Allee","gruppenname_de":"Altglascontainer"}},
{"geometry":{"type":"Point","coordinates":[8.44106843737718,49.01177367563512]},"type":"Feature","properties":{"name":"Rintheimer Hauptstraße/Ernststraße","gruppenname_de":"Altglascontainer"}},
{"geometry":{"type":"Point","coordinates":[8.441828970859685,49.03488076900916]},"type":"Feature","properties":{"name":"Schneidemühler Straße (bei Wendeschleife)","gruppenname_de":"Altglascontainer"}},
{"geometry":{"type":"Point","coordinates":[8.442401509411022,49.031580109894385]},"type":"Feature","properties":{"name":"Im Eichbäumle (gegenüber Nr. 2)","gruppenname_de":"Altglascontainer"}},
{"geometry":{"type":"Point","coordinates":[8.442673963945161,48.9928579415845]},"type":"Feature","properties":{"name":"Wachhausstraße/Geißenrainweg","gruppenname_de":"Altglascontainer"}},
{"geometry":{"type":"Point","coordinates":[8.443007861448104,49.04206707147394]},"type":"Feature","properties":{"name":"Elbinger Straße (bei Einkaufszentrum/Nr. 16)","gruppenname_de":"Altglascontainer"}},
{"geometry":{"type":"Point","coordinates":[8.443158564616768,49.0170704273934]},"type":"Feature","properties":{"name":"Hirtenweg Nr. 16","gruppenname_de":"Altglascontainer"}},
{"geometry":{"type":"Point","coordinates":[8.443346808381133,49.01027915111454]},"type":"Feature","properties":{"name":"Heinrich-Wittmann-Straße (gegenüber Nr. 17)","gruppenname_de":"Altglascontainer"}},
{"geometry":{"type":"Point","coordinates":[8.443612906436309,49.03971938270644]},"type":"Feature","properties":{"name":"Kolberger Straße (bei Telefonhäuschen/vor Nr. 20)","gruppenname_de":"Altglascontainer"}},
{"geometry":{"type":"Point","coordinates":[8.444137544121785,49.02794787367416]},"type":"Feature","properties":{"name":"Breslauer Straße/Oppelner Straße","gruppenname_de":"Altglascontainer"}},
{"geometry":{"type":"Point","coordinates":[8.444287238482476,49.034617754061834]},"type":"Feature","properties":{"name":"Neisser Straße (beim Einkaufszentrum)","gruppenname_de":"Altglascontainer"}},
{"geometry":{"type":"Point","coordinates":[8.444409381513319,49.03718946080789]},"type":"Feature","properties":{"name":"Insterburger Straße (bei Wendeschleife)","gruppenname_de":"Altglascontainer"}},
{"geometry":{"type":"Point","coordinates":[8.444651706552776,49.03366591847541]},"type":"Feature","properties":{"name":"Kösliner Straße/Glogauer Straße","gruppenname_de":"Altglascontainer"}},
{"geometry":{"type":"Point","coordinates":[8.444833246190235,49.0421987652298]},"type":"Feature","properties":{"name":"Elbinger Straße/Osteroder Straße","gruppenname_de":"Altglascontainer"}},
{"geometry":{"type":"Point","coordinates":[8.445491183982373,49.03577851105523]},"type":"Feature","properties":{"name":"Lötzener Straße (beim Einkaufszentrum)","gruppenname_de":"Altglascontainer"}},
{"geometry":{"type":"Point","coordinates":[8.44610525075106,49.01889219676422]},"type":"Feature","properties":{"name":"Mannheimer Straße/Drosselsangweg","gruppenname_de":"Altglascontainer"}},
{"geometry":{"type":"Point","coordinates":[8.447225880203362,49.036234914166045]},"type":"Feature","properties":{"name":"Lauenburger Straße (bei Nr. 3)","gruppenname_de":"Altglascontainer"}},
{"geometry":{"type":"Point","coordinates":[8.447422656166358,49.03918057139466]},"type":"Feature","properties":{"name":"Kolberger Straße/Glogauer Straße/Jägerhaussee)","gruppenname_de":"Altglascontainer"}},
{"geometry":{"type":"Point","coordinates":[8.447959345649693,49.04615583309623]},"type":"Feature","properties":{"name":"Albert-Schweitzer-Straße (bei Europaschule)","gruppenname_de":"Altglascontainer"}},
{"geometry":{"type":"Point","coordinates":[8.448027835003598,49.02880041558569]},"type":"Feature","properties":{"name":"Schweidnitzer Straße (bei Nr. 10 a)","gruppenname_de":"Altglascontainer"}},
{"geometry":{"type":"Point","coordinates":[8.448407135157574,48.99246312820584]},"type":"Feature","properties":{"name":"Wachhausstraße (bei Bushaltestelle)","gruppenname_de":"Altglascontainer"}},
{"geometry":{"type":"Point","coordinates":[8.449969580321156,49.024293679554084]},"type":"Feature","properties":{"name":"Karlsruher Straße/Gondelsheimer Straße","gruppenname_de":"Altglascontainer"}},
{"geometry":{"type":"Point","coordinates":[8.451064312242135,48.977471563234]},"type":"Feature","properties":{"name":"Wettersteinstraße/Talwiesenstraße","gruppenname_de":"Altglascontainer"}},
{"geometry":{"type":"Point","coordinates":[8.451335162385158,48.99500838431409]},"type":"Feature","properties":{"name":"Wilferdinger Straße/Ispringer Straße","gruppenname_de":"Altglascontainer"}},
{"geometry":{"type":"Point","coordinates":[8.45185417482034,48.98836036791954]},"type":"Feature","properties":{"name":"Schlesier Straße/Karpatenstraße","gruppenname_de":"Altglascontainer"}},
{"geometry":{"type":"Point","coordinates":[8.45236478890593,48.97466543099305]},"type":"Feature","properties":{"name":"Rathausstraße (bei Feuerwehr)","gruppenname_de":"Altglascontainer"}},
{"geometry":{"type":"Point","coordinates":[8.453035961577202,48.99583072984285]},"type":"Feature","properties":{"name":"Lissenstraße 45","gruppenname_de":"Altglascontainer"}},
{"geometry":{"type":"Point","coordinates":[8.45324000311419,48.994901333168094]},"type":"Feature","properties":{"name":"Ellmendinger Straße/Auf den Lohn","gruppenname_de":"Altglascontainer"}},
{"geometry":{"type":"Point","coordinates":[8.453324583091439,48.99278979549464]},"type":"Feature","properties":{"name":"Ellmendinger Straße/Ersinger Straße (Parkplatz)","gruppenname_de":"Altglascontainer"}},
{"geometry":{"type":"Point","coordinates":[8.453883717880485,48.999605095847905]},"type":"Feature","properties":{"name":"Dornwaldstraße/Lortzingstraße","gruppenname_de":"Altglascontainer"}},
{"geometry":{"type":"Point","coordinates":[8.454164802529538,48.972785106713154]},"type":"Feature","properties":{"name":"Schloßbergstraße (beim Freibad)","gruppenname_de":"Altglascontainer"}},
{"geometry":{"type":"Point","coordinates":[8.454224767769684,49.027160722689544]},"type":"Feature","properties":{"name":"Bruchsaler Straße (unter der Brücke)","gruppenname_de":"Altglascontainer"}},
{"geometry":{"type":"Point","coordinates":[8.454280369892494,49.033231316686994]},"type":"Feature","properties":{"name":"Leipziger Allee/Meißener Straße","gruppenname_de":"Altglascontainer"}},
{"geometry":{"type":"Point","coordinates":[8.454484720449983,48.9965229885301]},"type":"Feature","properties":{"name":"Killisfeldstraße/Lissenstraße (Supermarkt Parkplatz)","gruppenname_de":"Altglascontainer"}},
{"geometry":{"type":"Point","coordinates":[8.454746755425056,49.04235690020698]},"type":"Feature","properties":{"name":"Reitschulschlag/Lachenweg ","gruppenname_de":"Altglascontainer"}},
{"geometry":{"type":"Point","coordinates":[8.455646279841568,48.991655228652256]},"type":"Feature","properties":{"name":"Ellmendinger Straße/Grazer Straße","gruppenname_de":"Altglascontainer"}},
{"geometry":{"type":"Point","coordinates":[8.457330953375951,48.99943902722695]},"type":"Feature","properties":{"name":"Schinnrainstraße (bei Nr. 11)","gruppenname_de":"Altglascontainer"}},
{"geometry":{"type":"Point","coordinates":[8.457525076613887,49.003846622089824]},"type":"Feature","properties":{"name":"Alte Karlsruher Straße (Autobahnpolizei)","gruppenname_de":"Altglascontainer"}},
{"geometry":{"type":"Point","coordinates":[8.458014556934094,48.97817043061898]},"type":"Feature","properties":{"name":"Steinkreuzstraße (bei ausgedienter Bushaltestelle)","gruppenname_de":"Altglascontainer"}},
{"geometry":{"type":"Point","coordinates":[8.458019170681453,48.99523860199749]},"type":"Feature","properties":{"name":"Eckhartstraße/Dietrichstraße","gruppenname_de":"Altglascontainer"}},
{"geometry":{"type":"Point","coordinates":[8.459084524099355,48.993687761714696]},"type":"Feature","properties":{"name":"Ellmendinger Straße/Reichenbachstraße (Edeka-Markt)","gruppenname_de":"Altglascontainer"}},
{"geometry":{"type":"Point","coordinates":[8.45915991790455,48.99188802414403]},"type":"Feature","properties":{"name":"Ellmendinger Straße/Stegwiesenstraße","gruppenname_de":"Altglascontainer"}},
{"geometry":{"type":"Point","coordinates":[8.46001099258451,49.02712239295979]},"type":"Feature","properties":{"name":"Schäferstraße (Wertstoffstation)","gruppenname_de":"Altglascontainer"}},
{"geometry":{"type":"Point","coordinates":[8.461131606765425,48.99976119151325]},"type":"Feature","properties":{"name":"Blotterstraße/Christofstraße","gruppenname_de":"Altglascontainer"}},
{"geometry":{"type":"Point","coordinates":[8.461440169980726,49.00114444140839]},"type":"Feature","properties":{"name":"Durlach Bahnhof (Parkplatz unter der Brücke)","gruppenname_de":"Altglascontainer"}},
{"geometry":{"type":"Point","coordinates":[8.462024163848582,49.02493161072934]},"type":"Feature","properties":{"name":"An der Tagweide (zwischen Nr. 14 - 18)","gruppenname_de":"Altglascontainer"}},
{"geometry":{"type":"Point","coordinates":[8.462315912398381,48.99425509123634]},"type":"Feature","properties":{"name":"Auer Straße/Hildebrandstraße","gruppenname_de":"Altglascontainer"}},
{"geometry":{"type":"Point","coordinates":[8.46346649707216,48.98174998180858]},"type":"Feature","properties":{"name":"Albert-Einstein-Straße/Tiefentalstraße","gruppenname_de":"Altglascontainer"}},
{"geometry":{"type":"Point","coordinates":[8.464075201796874,48.97410424785634]},"type":"Feature","properties":{"name":"Straße des Roten Kreuzes/Hooverstraße","gruppenname_de":"Altglascontainer"}},
{"geometry":{"type":"Point","coordinates":[8.464606439404724,48.99187957682368]},"type":"Feature","properties":{"name":"Brühlstraße/Grenzstraße (Parkplatz)","gruppenname_de":"Altglascontainer"}},
{"geometry":{"type":"Point","coordinates":[8.464866503476198,48.99863304720386]},"type":"Feature","properties":{"name":"Gritznerstraße (bei Nr. 11)","gruppenname_de":"Altglascontainer"}},
{"geometry":{"type":"Point","coordinates":[8.465352984321594,48.9945178739278]},"type":"Feature","properties":{"name":"Rommelstraße 5 (Parkplatz Treff-Markt)","gruppenname_de":"Altglascontainer"}},
{"geometry":{"type":"Point","coordinates":[8.465922767740002,48.95594385231094]},"type":"Feature","properties":{"name":"Horfstraße/Wildbader Straße","gruppenname_de":"Altglascontainer"}},
{"geometry":{"type":"Point","coordinates":[8.466437392803396,48.959607639994154]},"type":"Feature","properties":{"name":"Am Wetterbach (gegenüber Nr. 18)","gruppenname_de":"Altglascontainer"}},
{"geometry":{"type":"Point","coordinates":[8.46686133922695,48.97297454839497]},"type":"Feature","properties":{"name":"Fridjof-Nansen-Straße (bei Nr. 17 - 27)","gruppenname_de":"Altglascontainer"}},
{"geometry":{"type":"Point","coordinates":[8.467201400969376,48.97061990005003]},"type":"Feature","properties":{"name":"Elsa-Brändström-Straße (Parkplatz Nr. 13 a)","gruppenname_de":"Altglascontainer"}},
{"geometry":{"type":"Point","coordinates":[8.467234275715521,48.997784556750275]},"type":"Feature","properties":{"name":"Kanzlerstraße (Festhalle Durlach auf dem Parkplatz)","gruppenname_de":"Altglascontainer"}},
{"geometry":{"type":"Point","coordinates":[8.467696250520033,49.00205790121352]},"type":"Feature","properties":{"name":"Pfinzstraße/Pforzheimer Straße","gruppenname_de":"Altglascontainer"}},
{"geometry":{"type":"Point","coordinates":[8.46910261879285,49.003327844166435]},"type":"Feature","properties":{"name":"Pforzheimer Straße/Töpferweg","gruppenname_de":"Altglascontainer"}},
{"geometry":{"type":"Point","coordinates":[8.469902631435428,48.98795811077476]},"type":"Feature","properties":{"name":"Badener Straße/Max-Liebermann-Straße (bei Bushaltestelle)","gruppenname_de":"Altglascontainer"}},
{"geometry":{"type":"Point","coordinates":[8.470756654386195,48.96409701332076]},"type":"Feature","properties":{"name":"Spitalhof (bei Sportplatz)","gruppenname_de":"Altglascontainer"}},
{"geometry":{"type":"Point","coordinates":[8.470911421533192,48.95224112085]},"type":"Feature","properties":{"name":"Wiesenstraße 34 (Wertstoffstation)","gruppenname_de":"Altglascontainer"}},
{"geometry":{"type":"Point","coordinates":[8.47262397158747,49.00362054811097]},"type":"Feature","properties":{"name":"Waldshuter Straße/Hubstraße","gruppenname_de":"Altglascontainer"}},
{"geometry":{"type":"Point","coordinates":[8.47393077508579,49.0290312003584]},"type":"Feature","properties":{"name":"An der Roßweid/Greschbachstraße 9","gruppenname_de":"Altglascontainer"}},
{"geometry":{"type":"Point","coordinates":[8.474396624324186,48.95823067475487]},"type":"Feature","properties":{"name":"Heidenheimer Straße 30","gruppenname_de":"Altglascontainer"}},
{"geometry":{"type":"Point","coordinates":[8.474658253260735,49.00080259863616]},"type":"Feature","properties":{"name":"Blumentorstraße Nr. 25 (gegenüber HL-Markt)","gruppenname_de":"Altglascontainer"}},
{"geometry":{"type":"Point","coordinates":[8.475126947463636,48.9975253782405]},"type":"Feature","properties":{"name":"Karlsburgstraße/Karl-Weysser-Straße","gruppenname_de":"Altglascontainer"}},
{"geometry":{"type":"Point","coordinates":[8.475209411010056,49.00260455469375]},"type":"Feature","properties":{"name":"Friedrich-Eberle-Straße/Kleinbachstraße","gruppenname_de":"Altglascontainer"}},
{"geometry":{"type":"Point","coordinates":[8.475989775700784,48.97186354569993]},"type":"Feature","properties":{"name":"Tiefentalstraße (Ortseingang linke Seite von Durlach kommend)","gruppenname_de":"Altglascontainer"}},
{"geometry":{"type":"Point","coordinates":[8.476006107970948,48.98839389313155]},"type":"Feature","properties":{"name":"Ernst-Barlach-Straße/Carl-Hofer-Straße","gruppenname_de":"Altglascontainer"}},
{"geometry":{"type":"Point","coordinates":[8.476879166222506,48.954269712925004]},"type":"Feature","properties":{"name":"Esslinger Straße (bei Trafo-Station)","gruppenname_de":"Altglascontainer"}},
{"geometry":{"type":"Point","coordinates":[8.47864866946583,48.99296943730583]},"type":"Feature","properties":{"name":"Geigersbergstraße/Bergwaldstraße","gruppenname_de":"Altglascontainer"}},
{"geometry":{"type":"Point","coordinates":[8.478742940468365,49.00304046293454]},"type":"Feature","properties":{"name":"Alte Weingartener Straße (gegenüber von Restaurant Obermühle)","gruppenname_de":"Altglascontainer"}},
{"geometry":{"type":"Point","coordinates":[8.480598399009626,48.947758487378]},"type":"Feature","properties":{"name":"Friedhofweg (gegenüber Friedhof)","gruppenname_de":"Altglascontainer"}},
{"geometry":{"type":"Point","coordinates":[8.480841840655009,48.996340156192176]},"type":"Feature","properties":{"name":"Dürrbachstraße/Posseltstraße","gruppenname_de":"Altglascontainer"}},
{"geometry":{"type":"Point","coordinates":[8.480925816066074,48.98991708008384]},"type":"Feature","properties":{"name":"Käthe-Kollwitz-Straße (bei Nr. 27 - 33)","gruppenname_de":"Altglascontainer"}},
{"geometry":{"type":"Point","coordinates":[8.481530009451433,49.0017724250191]},"type":"Feature","properties":{"name":"Liebensteinstraße/Grötzinger Straße (Parkplatz ASV-Sportplatz)","gruppenname_de":"Altglascontainer"}},
{"geometry":{"type":"Point","coordinates":[8.484888296462435,49.011660916904276]},"type":"Feature","properties":{"name":"Alte Weingartener Straße 63 (Wertstoffstation bei Tierkörperbeseitigungsanstalt)","gruppenname_de":"Altglascontainer"}},
{"geometry":{"type":"Point","coordinates":[8.486010914784774,48.99738989027251]},"type":"Feature","properties":{"name":"Reichardtstraße (auf Parkplatz bei der Bergbahnstation)","gruppenname_de":"Altglascontainer"}},
{"geometry":{"type":"Point","coordinates":[8.486883259774041,48.94568904513643]},"type":"Feature","properties":{"name":"Talstraße (Ortsausgang Richtung Stupferich)","gruppenname_de":"Altglascontainer"}},
{"geometry":{"type":"Point","coordinates":[8.488678073948748,48.99124078762156]},"type":"Feature","properties":{"name":"In der Tasch/Rittnertstraße","gruppenname_de":"Altglascontainer"}},
{"geometry":{"type":"Point","coordinates":[8.491342539065228,49.01260619910931]},"type":"Feature","properties":{"name":"Durlacher Straße (vor Nr. 52)","gruppenname_de":"Altglascontainer"}},
{"geometry":{"type":"Point","coordinates":[8.49373915980157,49.007570485850664]},"type":"Feature","properties":{"name":"Grezzostraße (gegenüber Nr. 10)","gruppenname_de":"Altglascontainer"}},
{"geometry":{"type":"Point","coordinates":[8.497346945797918,49.01255834201331]},"type":"Feature","properties":{"name":"Ziegeleistraße/Am Knittelberg","gruppenname_de":"Altglascontainer"}},
{"geometry":{"type":"Point","coordinates":[8.498687781970775,49.01604221471568]},"type":"Feature","properties":{"name":"Weingartener Straße (bei Grünabfallcontainer)","gruppenname_de":"Altglascontainer"}},
{"geometry":{"type":"Point","coordinates":[8.500911607270671,49.00569246783602]},"type":"Feature","properties":{"name":"Eisenbahnstraße (gemeinsamer Parkplatz zwischen Edeka und Lidl)","gruppenname_de":"Altglascontainer"}},
{"geometry":{"type":"Point","coordinates":[8.500953706816476,49.00109761229271]},"type":"Feature","properties":{"name":"Am Kirchberg 19","gruppenname_de":"Altglascontainer"}},
{"geometry":{"type":"Point","coordinates":[8.50346564338759,49.001047629599086]},"type":"Feature","properties":{"name":"Fikentscherstraße (gegenüber Nr. 21)","gruppenname_de":"Altglascontainer"}},
{"geometry":{"type":"Point","coordinates":[8.503526185346173,48.951547739643715]},"type":"Feature","properties":{"name":"Palmbacher Straße/Rieslingstraße","gruppenname_de":"Altglascontainer"}},
{"geometry":{"type":"Point","coordinates":[8.503528976411754,48.95224930175954]},"type":"Feature","properties":{"name":"Pfefferäckerstraße (gegenüber Nr. 15)","gruppenname_de":"Altglascontainer"}},
{"geometry":{"type":"Point","coordinates":[8.504184619008374,48.95645168858006]},"type":"Feature","properties":{"name":"Windelbachstraße (an der Wendeschleife)","gruppenname_de":"Altglascontainer"}},
{"geometry":{"type":"Point","coordinates":[8.504614321836328,49.00722552874082]},"type":"Feature","properties":{"name":"Im Speitel/Froschhöhle","gruppenname_de":"Altglascontainer"}},
{"geometry":{"type":"Point","coordinates":[8.504690596888807,49.005452752668965]},"type":"Feature","properties":{"name":"Tullaweg/Oberaustraße","gruppenname_de":"Altglascontainer"}},
{"geometry":{"type":"Point","coordinates":[8.504708849757064,48.96715804955112]},"type":"Feature","properties":{"name":"Stupfericher Weg/Thomashof","gruppenname_de":"Altglascontainer"}},
{"geometry":{"type":"Point","coordinates":[8.50754435859515,49.008133726948415]},"type":"Feature","properties":{"name":"Im Speitel (vor Nr. 45)","gruppenname_de":"Altglascontainer"}},
{"geometry":{"type":"Point","coordinates":[8.507715613420975,48.94897668456461]},"type":"Feature","properties":{"name":"Rieslingstraße (bei Nr. 45/Trafostation)","gruppenname_de":"Altglascontainer"}},
{"geometry":{"type":"Point","coordinates":[8.510140731413074,49.00338466231053]},"type":"Feature","properties":{"name":"Georg-Scholz-Straße","gruppenname_de":"Altglascontainer"}},
{"geometry":{"type":"Point","coordinates":[8.512200934872183,49.005989791956566]},"type":"Feature","properties":{"name":"Krappmühlenweg (bei Eisenbahnbrücke)","gruppenname_de":"Altglascontainer"}},
{"geometry":{"type":"Point","coordinates":[8.514093726498382,48.951178923821885]},"type":"Feature","properties":{"name":"Neubergstraße/Sonnenbergstraße","gruppenname_de":"Altglascontainer"}}
]}
