{"type":"FeatureCollection","properties":{"exceededTransferLimit":false},"features":[
{"geometry":{"type":"Point","coordinates":[8.319645141207976,49.006195516373154]},"type":"Feature","properties":{"name":"Babbergerstraße/Waidweg","gruppenname_de":"Alttextilcontainer"}},
{"geometry":{"type":"Point","coordinates":[8.322902272528058,49.005179008006635]},"type":"Feature","properties":{"name":"Festplatz (bei Feuerwehrhaus)","gruppenname_de":"Alttextilcontainer"}},
{"geometry":{"type":"Point","coordinates":[8.325706005259647,49.00793862771756]},"type":"Feature","properties":{"name":"Fettweisstraße (Wertstoffstation)","gruppenname_de":"Alttextilcontainer"}},
{"geometry":{"type":"Point","coordinates":[8.326710182508382,49.006017146775505]},"type":"Feature","properties":{"name":"Inselstraße (Nähe Denkmal)","gruppenname_de":"Alttextilcontainer"}},
{"geometry":{"type":"Point","coordinates":[8.333494500282569,49.00055968986426]},"type":"Feature","properties":{"name":"Agathenstraße/Valentinstraße","gruppenname_de":"Alttextilcontainer"}},
{"geometry":{"type":"Point","coordinates":[8.334397363736993,49.03138787368293]},"type":"Feature","properties":{"name":"Untere Straße/Eggensteiner Straße","gruppenname_de":"Alttextilcontainer"}},
{"geometry":{"type":"Point","coordinates":[8.33604508776713,48.99691392635856]},"type":"Feature","properties":{"name":"Pappelallee/Falterweg","gruppenname_de":"Alttextilcontainer"}},
{"geometry":{"type":"Point","coordinates":[8.336627756619936,48.99392302857677]},"type":"Feature","properties":{"name":"Panoramaweg/Am Anger (beim REWE-Markt)","gruppenname_de":"Alttextilcontainer"}},
{"geometry":{"type":"Point","coordinates":[8.336935033447727,49.03697721979574]},"type":"Feature","properties":{"name":"Rheinbergstraße/Jakob-Dörr-Straße","gruppenname_de":"Alttextilcontainer"}},
{"geometry":{"type":"Point","coordinates":[8.338210022211909,49.00242934984223]},"type":"Feature","properties":{"name":"Agathenstraße (gegenüber Nr. 24)","gruppenname_de":"Alttextilcontainer"}},
{"geometry":{"type":"Point","coordinates":[8.338401479250093,49.03382133667632]},"type":"Feature","properties":{"name":"Östliche Rheinbrückenstraße/Eggensteiner Str.","gruppenname_de":"Alttextilcontainer"}},
{"geometry":{"type":"Point","coordinates":[8.34080949870914,49.01801796165469]},"type":"Feature","properties":{"name":"Nordbeckenstraße 1 (Wertstoffstation)","gruppenname_de":"Alttextilcontainer"}},
{"geometry":{"type":"Point","coordinates":[8.341602749732566,48.998366260843056]},"type":"Feature","properties":{"name":"Thomas-Mann-Straße bei Nr. 3","gruppenname_de":"Alttextilcontainer"}},
{"geometry":{"type":"Point","coordinates":[8.34205449182774,48.995784453301354]},"type":"Feature","properties":{"name":"Brunnenäckerweg/Lindenallee","gruppenname_de":"Alttextilcontainer"}},
{"geometry":{"type":"Point","coordinates":[8.342397766843886,49.00214943780233]},"type":"Feature","properties":{"name":"August-Dosenbach-Straße 1","gruppenname_de":"Alttextilcontainer"}},
{"geometry":{"type":"Point","coordinates":[8.343297146631565,49.029582008764635]},"type":"Feature","properties":{"name":"Sudetenstraße/Östliche Rheinbrückenstraße","gruppenname_de":"Alttextilcontainer"}},
{"geometry":{"type":"Point","coordinates":[8.343906233140345,49.00725318458303]},"type":"Feature","properties":{"name":"Daxlander Straße/Pfannkuchstraße","gruppenname_de":"Alttextilcontainer"}},
{"geometry":{"type":"Point","coordinates":[8.347059759962049,49.03849089499824]},"type":"Feature","properties":{"name":"Egon-Eiermann-Allee (gegenüber Nr. 19)","gruppenname_de":"Alttextilcontainer"}},
{"geometry":{"type":"Point","coordinates":[8.347738391345123,49.033384398692284]},"type":"Feature","properties":{"name":"Sudetenstraße (gegenüber Nr. 62)","gruppenname_de":"Alttextilcontainer"}},
{"geometry":{"type":"Point","coordinates":[8.349732629716337,49.031062695827245]},"type":"Feature","properties":{"name":"Julius-Bergmann-Straße","gruppenname_de":"Alttextilcontainer"}},
{"geometry":{"type":"Point","coordinates":[8.350575888154983,48.99906812443749]},"type":"Feature","properties":{"name":"Eichelbergstraße/Pulverhausstraße (HIT-Parkplatz)","gruppenname_de":"Alttextilcontainer"}},
{"geometry":{"type":"Point","coordinates":[8.352203698331866,49.004044909555674]},"type":"Feature","properties":{"name":"Zeppelinstraße/Konradin-Kreuzer-Straße","gruppenname_de":"Alttextilcontainer"}},
{"geometry":{"type":"Point","coordinates":[8.352315077749022,48.99502861393422]},"type":"Feature","properties":{"name":"Heidenstückerweg/Bernsteinstraße","gruppenname_de":"Alttextilcontainer"}},
{"geometry":{"type":"Point","coordinates":[8.354394597681717,48.997132561546714]},"type":"Feature","properties":{"name":"Bernsteinstraße/Edelbergstraße","gruppenname_de":"Alttextilcontainer"}},
{"geometry":{"type":"Point","coordinates":[8.355185879598038,49.00556532038969]},"type":"Feature","properties":{"name":"Durmersheimer Straße (beim Friedhof)","gruppenname_de":"Alttextilcontainer"}},
{"geometry":{"type":"Point","coordinates":[8.356537350925565,49.03583558898443]},"type":"Feature","properties":{"name":"Ludwig-Dill-Straße/Ferdinand-Keller-Straße","gruppenname_de":"Alttextilcontainer"}},
{"geometry":{"type":"Point","coordinates":[8.356613994287256,49.020300348814544]},"type":"Feature","properties":{"name":"Keplerstraße/Laubenweg","gruppenname_de":"Alttextilcontainer"}},
{"geometry":{"type":"Point","coordinates":[8.357768617786585,49.01522830866423]},"type":"Feature","properties":{"name":"Steubenstraße/Sonnenstraße","gruppenname_de":"Alttextilcontainer"}},
{"geometry":{"type":"Point","coordinates":[8.359209342127425,48.98530813332153]},"type":"Feature","properties":{"name":"Eugen-Geck-Straße (bei Nr. 5)","gruppenname_de":"Alttextilcontainer"}},
{"geometry":{"type":"Point","coordinates":[8.360181754049497,49.01740346570751]},"type":"Feature","properties":{"name":"Keplerstraße","gruppenname_de":"Alttextilcontainer"}},
{"geometry":{"type":"Point","coordinates":[8.360817366910169,48.98730690539558]},"type":"Feature","properties":{"name":"Rudolf-Breitscheid-Straße bei Nr. 3","gruppenname_de":"Alttextilcontainer"}},
{"geometry":{"type":"Point","coordinates":[8.363428153196821,49.017756840598835]},"type":"Feature","properties":{"name":"Hertzstraße (bei KONDIMA)","gruppenname_de":"Alttextilcontainer"}},
{"geometry":{"type":"Point","coordinates":[8.363754492274921,49.030892650471515]},"type":"Feature","properties":{"name":"Berliner Straße/Landauer Straße","gruppenname_de":"Alttextilcontainer"}},
{"geometry":{"type":"Point","coordinates":[8.363912474492398,49.027395401445595]},"type":"Feature","properties":{"name":"Durlacher Weg/Berliner Straße","gruppenname_de":"Alttextilcontainer"}},
{"geometry":{"type":"Point","coordinates":[8.364030560731416,48.98868020643653]},"type":"Feature","properties":{"name":"Bonhoefferstraße (Festplatz)","gruppenname_de":"Alttextilcontainer"}},
{"geometry":{"type":"Point","coordinates":[8.364416564114066,49.03501835345973]},"type":"Feature","properties":{"name":"Hertzstraße/Frankenthaler Straße","gruppenname_de":"Alttextilcontainer"}},
{"geometry":{"type":"Point","coordinates":[8.364530757952963,48.9870484169117]},"type":"Feature","properties":{"name":"Bernhard-Lichtenberg-Straße (Schule)","gruppenname_de":"Alttextilcontainer"}},
{"geometry":{"type":"Point","coordinates":[8.364738632601298,49.03291230490609]},"type":"Feature","properties":{"name":"Germersheimer Straße/Hertzstraße","gruppenname_de":"Alttextilcontainer"}},
{"geometry":{"type":"Point","coordinates":[8.365703584014877,49.02736279249814]},"type":"Feature","properties":{"name":"Madenburgweg (bei Nr. 16)","gruppenname_de":"Alttextilcontainer"}},
{"geometry":{"type":"Point","coordinates":[8.36574465858296,48.98426987932652]},"type":"Feature","properties":{"name":"Hermann-Müller-Würtz-Straße 2","gruppenname_de":"Alttextilcontainer"}},
{"geometry":{"type":"Point","coordinates":[8.366216356752123,49.014245556147095]},"type":"Feature","properties":{"name":"Seldeneckstraße/Tristanstraße","gruppenname_de":"Alttextilcontainer"}},
{"geometry":{"type":"Point","coordinates":[8.366875986970324,49.01622451813292]},"type":"Feature","properties":{"name":"Nibelungenstraße/Isoldestraße","gruppenname_de":"Alttextilcontainer"}},
{"geometry":{"type":"Point","coordinates":[8.366968717362136,49.01810729794853]},"type":"Feature","properties":{"name":"Moltkestraße (bei Erich-Kästner-Schule)","gruppenname_de":"Alttextilcontainer"}},
{"geometry":{"type":"Point","coordinates":[8.367877215948287,49.02354374000789]},"type":"Feature","properties":{"name":"St.-Barbara-Weg/Kesselbergweg","gruppenname_de":"Alttextilcontainer"}},
{"geometry":{"type":"Point","coordinates":[8.368182755434356,49.00507674546763]},"type":"Feature","properties":{"name":"Kriegsstraße/Wilhelm-Baur-Straße","gruppenname_de":"Alttextilcontainer"}},
{"geometry":{"type":"Point","coordinates":[8.368750534711305,48.98486637329326]},"type":"Feature","properties":{"name":"Bernhard-Lichtenberg-Straße 80","gruppenname_de":"Alttextilcontainer"}},
{"geometry":{"type":"Point","coordinates":[8.370532059209786,49.01381286572377]},"type":"Feature","properties":{"name":"Seldeneckstraße/Hagenstraße","gruppenname_de":"Alttextilcontainer"}},
{"geometry":{"type":"Point","coordinates":[8.370556788931214,49.028173777115946]},"type":"Feature","properties":{"name":"Stresemannstraße/Wilhelm-Hausenstein-Allee","gruppenname_de":"Alttextilcontainer"}},
{"geometry":{"type":"Point","coordinates":[8.3708603745815,49.0390799392444]},"type":"Feature","properties":{"name":"Hertzstraße/Schweigener Straße","gruppenname_de":"Alttextilcontainer"}},
{"geometry":{"type":"Point","coordinates":[8.37114013062218,49.00705593108709]},"type":"Feature","properties":{"name":"Yorckstraße (vor Nr. 49)","gruppenname_de":"Alttextilcontainer"}},
{"geometry":{"type":"Point","coordinates":[8.371582836563887,49.05282694120263]},"type":"Feature","properties":{"name":"Am Junkertschritt (Wertstoffstation)","gruppenname_de":"Alttextilcontainer"}},
{"geometry":{"type":"Point","coordinates":[8.371944986082477,48.983589449910774]},"type":"Feature","properties":{"name":"Großoberfeld (Wertstoffstation)","gruppenname_de":"Alttextilcontainer"}},
{"geometry":{"type":"Point","coordinates":[8.373004672927623,49.035427463183325]},"type":"Feature","properties":{"name":"Kaiserslauterner Straße/Trierer Straße","gruppenname_de":"Alttextilcontainer"}},
{"geometry":{"type":"Point","coordinates":[8.373069408221957,49.008593879058964]},"type":"Feature","properties":{"name":"Yorckstraße/Sophienstraße","gruppenname_de":"Alttextilcontainer"}},
{"geometry":{"type":"Point","coordinates":[8.373693942160259,49.00417530850796]},"type":"Feature","properties":{"name":"Eisenlohrstraße/Bunsenstraße","gruppenname_de":"Alttextilcontainer"}},
{"geometry":{"type":"Point","coordinates":[8.374543868793326,49.023362652732715]},"type":"Feature","properties":{"name":"Kussmaulstraße/Ludwig-Windhorst-Straße","gruppenname_de":"Alttextilcontainer"}},
{"geometry":{"type":"Point","coordinates":[8.374978244657347,49.030118499173604]},"type":"Feature","properties":{"name":"Josef-Schofer-Straße (beim Penny-Markt)","gruppenname_de":"Alttextilcontainer"}},
{"geometry":{"type":"Point","coordinates":[8.375126528663026,49.01352749521335]},"type":"Feature","properties":{"name":"Blücherstraße/Nördliche Hildapromenade","gruppenname_de":"Alttextilcontainer"}},
{"geometry":{"type":"Point","coordinates":[8.376880035606002,48.988785810218126]},"type":"Feature","properties":{"name":"Grünwinkler Straße/Landgrabenstraße","gruppenname_de":"Alttextilcontainer"}},
{"geometry":{"type":"Point","coordinates":[8.377297142257088,49.046217876839165]},"type":"Feature","properties":{"name":"Unterfeldstraße (gegenüber Gymnasium)","gruppenname_de":"Alttextilcontainer"}},
{"geometry":{"type":"Point","coordinates":[8.37799705113598,49.018417854614285]},"type":"Feature","properties":{"name":"Knielinger Allee/Gustav-Binz-Straße","gruppenname_de":"Alttextilcontainer"}},
{"geometry":{"type":"Point","coordinates":[8.379431037213859,49.01522536105846]},"type":"Feature","properties":{"name":"Freydorfstraße/Moltkestraße","gruppenname_de":"Alttextilcontainer"}},
{"geometry":{"type":"Point","coordinates":[8.380766437680947,49.055456430793406]},"type":"Feature","properties":{"name":"Neureuter Hauptstraße (bei Nr. 305)","gruppenname_de":"Alttextilcontainer"}},
{"geometry":{"type":"Point","coordinates":[8.38203799038923,49.01278976774171]},"type":"Feature","properties":{"name":"Südliche Hildapromenade/Kochstraße","gruppenname_de":"Alttextilcontainer"}},
{"geometry":{"type":"Point","coordinates":[8.382734358109262,49.00018691481822]},"type":"Feature","properties":{"name":"Lorenzstraße/Römhildstraße","gruppenname_de":"Alttextilcontainer"}},
{"geometry":{"type":"Point","coordinates":[8.383855422346192,49.01751750577346]},"type":"Feature","properties":{"name":"Knielinger Allee/Roggenbachstraße","gruppenname_de":"Alttextilcontainer"}},
{"geometry":{"type":"Point","coordinates":[8.38454322822322,49.02039629726707]},"type":"Feature","properties":{"name":"Erzbergerstraße/Michiganstraße","gruppenname_de":"Alttextilcontainer"}},
{"geometry":{"type":"Point","coordinates":[8.38560355197391,48.99401816731841]},"type":"Feature","properties":{"name":"Wartburgstraße/Hohenzollernstraße","gruppenname_de":"Alttextilcontainer"}},
{"geometry":{"type":"Point","coordinates":[8.385976586378764,48.997465397882785]},"type":"Feature","properties":{"name":"Graf-Rhena-Straße (bei Nr. 23)","gruppenname_de":"Alttextilcontainer"}},
{"geometry":{"type":"Point","coordinates":[8.386032455301246,49.05104793534958]},"type":"Feature","properties":{"name":"Unterfeldstraße (bei Festplatz)","gruppenname_de":"Alttextilcontainer"}},
{"geometry":{"type":"Point","coordinates":[8.386517159279085,49.031875421801466]},"type":"Feature","properties":{"name":"Flughafenstraße (bei Nr. 1)","gruppenname_de":"Alttextilcontainer"}},
{"geometry":{"type":"Point","coordinates":[8.386666265243209,49.02075722617657]},"type":"Feature","properties":{"name":"Rhode-Island-Allee (bei Pflegeheim)","gruppenname_de":"Alttextilcontainer"}},
{"geometry":{"type":"Point","coordinates":[8.386913450168363,49.054531426147676]},"type":"Feature","properties":{"name":"Alte Friedrichstraße/Nachtigallenweg","gruppenname_de":"Alttextilcontainer"}},
{"geometry":{"type":"Point","coordinates":[8.387596396159761,49.02524823030781]},"type":"Feature","properties":{"name":"Rhode Island Allee (gegenüber Nr. 57)","gruppenname_de":"Alttextilcontainer"}},
{"geometry":{"type":"Point","coordinates":[8.388529558890387,48.99535905661831]},"type":"Feature","properties":{"name":"Ebertstraße (bei REWE-Nahkauf)","gruppenname_de":"Alttextilcontainer"}},
{"geometry":{"type":"Point","coordinates":[8.389294409676143,49.00350105871578]},"type":"Feature","properties":{"name":"Mathystraße/Otto-Sachs-Straße","gruppenname_de":"Alttextilcontainer"}},
{"geometry":{"type":"Point","coordinates":[8.389967032228231,49.026119597032356]},"type":"Feature","properties":{"name":"Tennesseeallee (vor Schule)","gruppenname_de":"Alttextilcontainer"}},
{"geometry":{"type":"Point","coordinates":[8.390201670383826,48.99417430583738]},"type":"Feature","properties":{"name":"Gebhardstraße (gegenüber St. Michaelskirche)","gruppenname_de":"Alttextilcontainer"}},
{"geometry":{"type":"Point","coordinates":[8.390363790241501,49.03660348361942]},"type":"Feature","properties":{"name":"Sanddornweg/Jasminweg","gruppenname_de":"Alttextilcontainer"}},
{"geometry":{"type":"Point","coordinates":[8.391297769540687,49.04395525887372]},"type":"Feature","properties":{"name":"Am Sandfeld (bei Nr. 8)","gruppenname_de":"Alttextilcontainer"}},
{"geometry":{"type":"Point","coordinates":[8.392770634704144,49.05444862509612]},"type":"Feature","properties":{"name":"Herm.-Höpker-Aschoff-Straße bei Nr. 6","gruppenname_de":"Alttextilcontainer"}},
{"geometry":{"type":"Point","coordinates":[8.393176650754665,49.03680334199218]},"type":"Feature","properties":{"name":"Lorbeerweg gegenüber Nr. 16","gruppenname_de":"Alttextilcontainer"}},
{"geometry":{"type":"Point","coordinates":[8.393252540429858,48.992544824700694]},"type":"Feature","properties":{"name":"Breite Straße/Marie-Alexandra-Straße","gruppenname_de":"Alttextilcontainer"}},
{"geometry":{"type":"Point","coordinates":[8.393272820795763,48.997740116157665]},"type":"Feature","properties":{"name":"Kolpingplatz ","gruppenname_de":"Alttextilcontainer"}},
{"geometry":{"type":"Point","coordinates":[8.394316786225039,49.00450823155214]},"type":"Feature","properties":{"name":"Karlstraße/Gartenstraße (bei Litfaßsäule)","gruppenname_de":"Alttextilcontainer"}},
{"geometry":{"type":"Point","coordinates":[8.394962716236874,49.025138062700165]},"type":"Feature","properties":{"name":"Kentuckyallee 62-68","gruppenname_de":"Alttextilcontainer"}},
{"geometry":{"type":"Point","coordinates":[8.395356552928781,49.01330679146694]},"type":"Feature","properties":{"name":"Bismarckstraße/Wörthstraße","gruppenname_de":"Alttextilcontainer"}},
{"geometry":{"type":"Point","coordinates":[8.3962000781671,48.98444662306338]},"type":"Feature","properties":{"name":"Links der Alb/Nürnberger Straße","gruppenname_de":"Alttextilcontainer"}},
{"geometry":{"type":"Point","coordinates":[8.396325265588407,48.998266281672265]},"type":"Feature","properties":{"name":"Südendstraße/Beiertheimer Allee","gruppenname_de":"Alttextilcontainer"}},
{"geometry":{"type":"Point","coordinates":[8.39636715672505,49.00326545462841]},"type":"Feature","properties":{"name":"August-Dürr-Straße/Renckstraße","gruppenname_de":"Alttextilcontainer"}},
{"geometry":{"type":"Point","coordinates":[8.396736607750318,48.994709702643206]},"type":"Feature","properties":{"name":"Ebertstraße/Schwarzwaldstraße","gruppenname_de":"Alttextilcontainer"}},
{"geometry":{"type":"Point","coordinates":[8.39799421141884,48.98438502284013]},"type":"Feature","properties":{"name":"Rechts der Alb/Nürnberger Straße","gruppenname_de":"Alttextilcontainer"}},
{"geometry":{"type":"Point","coordinates":[8.398496637360585,49.04242302703536]},"type":"Feature","properties":{"name":"An der Trift/Grüner Weg","gruppenname_de":"Alttextilcontainer"}},
{"geometry":{"type":"Point","coordinates":[8.399910576634637,49.056239689681334]},"type":"Feature","properties":{"name":"Abraham-Lincoln-Allee (bei FV Fortuna)","gruppenname_de":"Alttextilcontainer"}},
{"geometry":{"type":"Point","coordinates":[8.401088265277174,49.003890700706464]},"type":"Feature","properties":{"name":"Beiertheimer Allee (vor Landratsamt)","gruppenname_de":"Alttextilcontainer"}},
{"geometry":{"type":"Point","coordinates":[8.40164793995371,48.995210590555345]},"type":"Feature","properties":{"name":"Am Stadtgarten/Bahnhofplatz (Stadtgartenmauer)","gruppenname_de":"Alttextilcontainer"}},
{"geometry":{"type":"Point","coordinates":[8.403370022031488,48.972444757569576]},"type":"Feature","properties":{"name":"Lange Straße/Rastatter Straße","gruppenname_de":"Alttextilcontainer"}},
{"geometry":{"type":"Point","coordinates":[8.403641402180465,48.97954459544448]},"type":"Feature","properties":{"name":"Rastatter Straße (auf dem Festplatz)","gruppenname_de":"Alttextilcontainer"}},
{"geometry":{"type":"Point","coordinates":[8.40422629166873,48.965855483004056]},"type":"Feature","properties":{"name":"Allmendstraße (bei Fußgängerbrücke)","gruppenname_de":"Alttextilcontainer"}},
{"geometry":{"type":"Point","coordinates":[8.40445336960285,48.999324477798986]},"type":"Feature","properties":{"name":"Augartenstraße","gruppenname_de":"Alttextilcontainer"}},
{"geometry":{"type":"Point","coordinates":[8.40469886839022,48.97148864887975]},"type":"Feature","properties":{"name":"Arndtstraße/Tulpenstraße","gruppenname_de":"Alttextilcontainer"}},
{"geometry":{"type":"Point","coordinates":[8.405540635625519,49.008386869971915]},"type":"Feature","properties":{"name":"Kreuzstraße (gegenüber Parkgarage)","gruppenname_de":"Alttextilcontainer"}},
{"geometry":{"type":"Point","coordinates":[8.405599541751986,49.0039090892768]},"type":"Feature","properties":{"name":"Baumeisterstraße/Wilhelmstraße 1","gruppenname_de":"Alttextilcontainer"}},
{"geometry":{"type":"Point","coordinates":[8.40694470151634,48.99734679900624]},"type":"Feature","properties":{"name":"Nebeniusstraße ","gruppenname_de":"Alttextilcontainer"}},
{"geometry":{"type":"Point","coordinates":[8.407304373481303,48.97603758274497]},"type":"Feature","properties":{"name":"Im Grün/Ostendorfplatz","gruppenname_de":"Alttextilcontainer"}},
{"geometry":{"type":"Point","coordinates":[8.407616701535906,48.97910021192181]},"type":"Feature","properties":{"name":"Wickenweg/Resedenweg","gruppenname_de":"Alttextilcontainer"}},
{"geometry":{"type":"Point","coordinates":[8.407735217169671,49.007050541085704]},"type":"Feature","properties":{"name":"Lidellplatz ","gruppenname_de":"Alttextilcontainer"}},
{"geometry":{"type":"Point","coordinates":[8.410375665826981,49.00694352112362]},"type":"Feature","properties":{"name":"Fritz-Erler-Straße (Ostseite vor Nr. 17)","gruppenname_de":"Alttextilcontainer"}},
{"geometry":{"type":"Point","coordinates":[8.410705169669853,48.96647944885999]},"type":"Feature","properties":{"name":"Adalbert-Stifter-Straße/Battstraße","gruppenname_de":"Alttextilcontainer"}},
{"geometry":{"type":"Point","coordinates":[8.410848092529891,48.998349170959926]},"type":"Feature","properties":{"name":"Rüppurrer Straße/Winterstraße","gruppenname_de":"Alttextilcontainer"}},
{"geometry":{"type":"Point","coordinates":[8.411041660608952,48.964701972992074]},"type":"Feature","properties":{"name":"Reinhold-Schneider-Straße 75 (bei Kindertagestätte)","gruppenname_de":"Alttextilcontainer"}},
{"geometry":{"type":"Point","coordinates":[8.413278469259698,49.007066413509655]},"type":"Feature","properties":{"name":"Kapellenstraße 58","gruppenname_de":"Alttextilcontainer"}},
{"geometry":{"type":"Point","coordinates":[8.41400617201345,48.97763001182362]},"type":"Feature","properties":{"name":"Kuhlager Seele Weg (bei Schule)","gruppenname_de":"Alttextilcontainer"}},
{"geometry":{"type":"Point","coordinates":[8.414573072738172,48.97209887610314]},"type":"Feature","properties":{"name":"Steinmannstraße (bei Grünabfallcontainer)","gruppenname_de":"Alttextilcontainer"}},
{"geometry":{"type":"Point","coordinates":[8.422618118521417,49.013407483412]},"type":"Feature","properties":{"name":"Parkstraße/Am Fasanengarten (bei Glascontainer)","gruppenname_de":"Alttextilcontainer"}},
{"geometry":{"type":"Point","coordinates":[8.423100022450537,49.0075524315633]},"type":"Feature","properties":{"name":"Gottesauer Platz (bei Glascontainern)","gruppenname_de":"Alttextilcontainer"}},
{"geometry":{"type":"Point","coordinates":[8.424140518586222,49.005585913434096]},"type":"Feature","properties":{"name":"Gottesauer Straße/Wolfartsweierer Straße","gruppenname_de":"Alttextilcontainer"}},
{"geometry":{"type":"Point","coordinates":[8.427399259687334,49.008681376733165]},"type":"Feature","properties":{"name":"Veilchenstraße/Gerwigstraße","gruppenname_de":"Alttextilcontainer"}},
{"geometry":{"type":"Point","coordinates":[8.427839378481002,49.015050750896144]},"type":"Feature","properties":{"name":"Stumpfstraße/E.-Frommel-Straße (Hauptfriedhof)","gruppenname_de":"Alttextilcontainer"}},
{"geometry":{"type":"Point","coordinates":[8.432616118800306,49.014322508202945]},"type":"Feature","properties":{"name":"Haid-und-Neu-Straße/Helmertstraße","gruppenname_de":"Alttextilcontainer"}},
{"geometry":{"type":"Point","coordinates":[8.433937507345632,49.033406431408764]},"type":"Feature","properties":{"name":"Königsberger Straße (gegenüber Nr. 4/bei Einkaufszentrum)","gruppenname_de":"Alttextilcontainer"}},
{"geometry":{"type":"Point","coordinates":[8.435575851167512,49.03695155920548]},"type":"Feature","properties":{"name":"Insterburger Straße (Parktasche gegenüber Häuserreihe 8)","gruppenname_de":"Alttextilcontainer"}},
{"geometry":{"type":"Point","coordinates":[8.437369322360858,49.00924953542276]},"type":"Feature","properties":{"name":"Theodor-Rehbock-Straße","gruppenname_de":"Alttextilcontainer"}},
{"geometry":{"type":"Point","coordinates":[8.438342616428482,49.01403615314545]},"type":"Feature","properties":{"name":"Forststraße (bei Nr.7)","gruppenname_de":"Alttextilcontainer"}},
{"geometry":{"type":"Point","coordinates":[8.438558007280797,49.03126255702504]},"type":"Feature","properties":{"name":"Königsberger Straße/Tilsiter Straße","gruppenname_de":"Alttextilcontainer"}},
{"geometry":{"type":"Point","coordinates":[8.438865130496719,49.03783635283725]},"type":"Feature","properties":{"name":"Insterburger Straße (bei Einkaufszentrum)","gruppenname_de":"Alttextilcontainer"}},
{"geometry":{"type":"Point","coordinates":[8.438903045689843,49.039243422366155]},"type":"Feature","properties":{"name":"Kolberger Straße/Friedlander Straße","gruppenname_de":"Alttextilcontainer"}},
{"geometry":{"type":"Point","coordinates":[8.440264529639553,48.99888072387386]},"type":"Feature","properties":{"name":"Maybachstraße 10b (Wertstoffstation)","gruppenname_de":"Alttextilcontainer"}},
{"geometry":{"type":"Point","coordinates":[8.440514044794543,49.01630344138787]},"type":"Feature","properties":{"name":"Heilbronner Straße/Staudenplatz","gruppenname_de":"Alttextilcontainer"}},
{"geometry":{"type":"Point","coordinates":[8.440805884074148,49.04151471598908]},"type":"Feature","properties":{"name":"Elbinger Straße/Johannisburger Straße","gruppenname_de":"Alttextilcontainer"}},
{"geometry":{"type":"Point","coordinates":[8.440854903342595,49.027493368936064]},"type":"Feature","properties":{"name":"Am Sportpark/Glogauer Straße","gruppenname_de":"Alttextilcontainer"}},
{"geometry":{"type":"Point","coordinates":[8.441009920221253,49.011706618356854]},"type":"Feature","properties":{"name":"Rintheimer Hauptstraße/Ernststraße","gruppenname_de":"Alttextilcontainer"}},
{"geometry":{"type":"Point","coordinates":[8.442407114000114,49.03165024016706]},"type":"Feature","properties":{"name":"Im Eichbäumle (gegenüber Nr. 2)","gruppenname_de":"Alttextilcontainer"}},
{"geometry":{"type":"Point","coordinates":[8.44326791024806,49.01702006718182]},"type":"Feature","properties":{"name":"Hirtenweg Nr. 16","gruppenname_de":"Alttextilcontainer"}},
{"geometry":{"type":"Point","coordinates":[8.443378218873375,49.01030618834121]},"type":"Feature","properties":{"name":"Heinrich-Wittmann-Straße (gegenüber Nr. 17)","gruppenname_de":"Alttextilcontainer"}},
{"geometry":{"type":"Point","coordinates":[8.444084353077185,49.027987548671014]},"type":"Feature","properties":{"name":"Breslauer Straße/Oppelner Straße","gruppenname_de":"Alttextilcontainer"}},
{"geometry":{"type":"Point","coordinates":[8.444140165405784,49.03726476025297]},"type":"Feature","properties":{"name":"Insterburger Straße (bei Wendeschleife)","gruppenname_de":"Alttextilcontainer"}},
{"geometry":{"type":"Point","coordinates":[8.444763019494546,49.03954273379828]},"type":"Feature","properties":{"name":"Kolberger Straße (bei Nr. 22 a)","gruppenname_de":"Alttextilcontainer"}},
{"geometry":{"type":"Point","coordinates":[8.445539658871779,49.03319817443732]},"type":"Feature","properties":{"name":"Kösliner Straße 12 (Hintereingang)","gruppenname_de":"Alttextilcontainer"}},
{"geometry":{"type":"Point","coordinates":[8.446025934901371,49.01883438655479]},"type":"Feature","properties":{"name":"Mannheimer Straße/Drosselsangweg","gruppenname_de":"Alttextilcontainer"}},
{"geometry":{"type":"Point","coordinates":[8.447566180897615,49.03582534642226]},"type":"Feature","properties":{"name":"Lauenburger Straße (bei Nr. 14)","gruppenname_de":"Alttextilcontainer"}},
{"geometry":{"type":"Point","coordinates":[8.447888440726027,49.046355475268626]},"type":"Feature","properties":{"name":"Albert-Schweitzer-Straße","gruppenname_de":"Alttextilcontainer"}},
{"geometry":{"type":"Point","coordinates":[8.448047434446469,49.02936345537308]},"type":"Feature","properties":{"name":"Schweidnitzer Straße","gruppenname_de":"Alttextilcontainer"}},
{"geometry":{"type":"Point","coordinates":[8.450182450500785,48.989756523119986]},"type":"Feature","properties":{"name":"Im Säuterich/Hauerlandstraße","gruppenname_de":"Alttextilcontainer"}},
{"geometry":{"type":"Point","coordinates":[8.450769048584661,48.992001438313636]},"type":"Feature","properties":{"name":"Ostmarkstraße/Im Säuterich","gruppenname_de":"Alttextilcontainer"}},
{"geometry":{"type":"Point","coordinates":[8.451088206530363,48.977446083042025]},"type":"Feature","properties":{"name":"Wettersteinstraße/Talwiesenstraße","gruppenname_de":"Alttextilcontainer"}},
{"geometry":{"type":"Point","coordinates":[8.45175550925944,48.988369443049]},"type":"Feature","properties":{"name":"Schlesier Straße","gruppenname_de":"Alttextilcontainer"}},
{"geometry":{"type":"Point","coordinates":[8.453872236512815,48.99272815784099]},"type":"Feature","properties":{"name":"Ellmendinger Straße/Ersinger Straße (Parkplatz)","gruppenname_de":"Alttextilcontainer"}},
{"geometry":{"type":"Point","coordinates":[8.45406945444695,48.99965477470492]},"type":"Feature","properties":{"name":"Dornwaldstraße/Lortzingstraße","gruppenname_de":"Alttextilcontainer"}},
{"geometry":{"type":"Point","coordinates":[8.454364828597168,49.03262166903181]},"type":"Feature","properties":{"name":"Leipziger Allee","gruppenname_de":"Alttextilcontainer"}},
{"geometry":{"type":"Point","coordinates":[8.454415023760347,48.977841573775834]},"type":"Feature","properties":{"name":"Hörgelstraße 14 ","gruppenname_de":"Alttextilcontainer"}},
{"geometry":{"type":"Point","coordinates":[8.454973500084256,48.99383048192657]},"type":"Feature","properties":{"name":"Auf den Lohn 8","gruppenname_de":"Alttextilcontainer"}},
{"geometry":{"type":"Point","coordinates":[8.45683445451839,48.99485536284512]},"type":"Feature","properties":{"name":"Bilfinger Straße (bei Nr. 2 a)","gruppenname_de":"Alttextilcontainer"}},
{"geometry":{"type":"Point","coordinates":[8.45732788203601,48.999392799417976]},"type":"Feature","properties":{"name":"Schinnrainstraße 11","gruppenname_de":"Alttextilcontainer"}},
{"geometry":{"type":"Point","coordinates":[8.457399825412187,49.00385723247724]},"type":"Feature","properties":{"name":"Alte Karlsruher Straße (Autobahnpolizei)","gruppenname_de":"Alttextilcontainer"}},
{"geometry":{"type":"Point","coordinates":[8.458593424116682,48.99435585235968]},"type":"Feature","properties":{"name":"Ellmendinger Straße/Reichenbachstraße ","gruppenname_de":"Alttextilcontainer"}},
{"geometry":{"type":"Point","coordinates":[8.459946769329921,49.02721453198919]},"type":"Feature","properties":{"name":"Schäferstraße (vor Wertstoffstation)","gruppenname_de":"Alttextilcontainer"}},
{"geometry":{"type":"Point","coordinates":[8.461205810302832,48.99983290836704]},"type":"Feature","properties":{"name":"Blotterstraße/Christofstraße (gegenüber Nr. 7  Blotterstraße)","gruppenname_de":"Alttextilcontainer"}},
{"geometry":{"type":"Point","coordinates":[8.462288238897697,48.98028757925558]},"type":"Feature","properties":{"name":"Albert-Einstein-Straße (Zündhütle)","gruppenname_de":"Alttextilcontainer"}},
{"geometry":{"type":"Point","coordinates":[8.462740906257617,48.99580529204324]},"type":"Feature","properties":{"name":"Auer Straße/Oberwaldstraße (Gehweg bei Ampel)","gruppenname_de":"Alttextilcontainer"}},
{"geometry":{"type":"Point","coordinates":[8.462980244398757,48.992460298908036]},"type":"Feature","properties":{"name":"Kärntner Straße/Grenzstraße","gruppenname_de":"Alttextilcontainer"}},
{"geometry":{"type":"Point","coordinates":[8.464507127056812,48.99190907199996]},"type":"Feature","properties":{"name":"Brühlstraße/Grenzstraße (bei Glascontainer)","gruppenname_de":"Alttextilcontainer"}},
{"geometry":{"type":"Point","coordinates":[8.464940866015358,48.99870892776467]},"type":"Feature","properties":{"name":"Gritznerstraße/Kanzlerstraße (bei AOK)","gruppenname_de":"Alttextilcontainer"}},
{"geometry":{"type":"Point","coordinates":[8.467222876992851,48.97133453619718]},"type":"Feature","properties":{"name":"Elsa-Brändström-Straße 15 a (Parkplatz bei Bushaltestelle)","gruppenname_de":"Alttextilcontainer"}},
{"geometry":{"type":"Point","coordinates":[8.46724625744474,48.99772630357271]},"type":"Feature","properties":{"name":"Kanzlerstraße (Parkplatz bei Festhalle)","gruppenname_de":"Alttextilcontainer"}},
{"geometry":{"type":"Point","coordinates":[8.468998375592369,49.00325719781638]},"type":"Feature","properties":{"name":"Pforzheimer Straße/Töpferweg","gruppenname_de":"Alttextilcontainer"}},
{"geometry":{"type":"Point","coordinates":[8.469986180146773,48.98805419112133]},"type":"Feature","properties":{"name":"Badener Straße/Max-Liebermann-Straße (bei Bushaltestelle)","gruppenname_de":"Alttextilcontainer"}},
{"geometry":{"type":"Point","coordinates":[8.470918083439333,48.952129594767065]},"type":"Feature","properties":{"name":"Wiesenstraße (Wertstoffstation)","gruppenname_de":"Alttextilcontainer"}},
{"geometry":{"type":"Point","coordinates":[8.47228534086132,49.003648164114814]},"type":"Feature","properties":{"name":"Waldshuter Straße/Hubstraße","gruppenname_de":"Alttextilcontainer"}},
{"geometry":{"type":"Point","coordinates":[8.47461833392615,49.00079830589544]},"type":"Feature","properties":{"name":"Blumentorstraße ","gruppenname_de":"Alttextilcontainer"}},
{"geometry":{"type":"Point","coordinates":[8.475205090113583,49.00256813901302]},"type":"Feature","properties":{"name":"Friedrich-Eberle-Straße (gegenüber Nr. 6)","gruppenname_de":"Alttextilcontainer"}},
{"geometry":{"type":"Point","coordinates":[8.478594973568029,48.993006032118465]},"type":"Feature","properties":{"name":"Geigersbergstraße/Bergwaldstraße","gruppenname_de":"Alttextilcontainer"}},
{"geometry":{"type":"Point","coordinates":[8.478749931157912,49.003089880835866]},"type":"Feature","properties":{"name":"Alte Weingartener Straße (gegenüber Nr. 37)","gruppenname_de":"Alttextilcontainer"}},
{"geometry":{"type":"Point","coordinates":[8.480790496546572,48.99627529070599]},"type":"Feature","properties":{"name":"Dürrbachstraße/Posseltstraße 19","gruppenname_de":"Alttextilcontainer"}},
{"geometry":{"type":"Point","coordinates":[8.481462721145048,49.001783519685674]},"type":"Feature","properties":{"name":"Liebensteinstraße/Grötzinger Straße","gruppenname_de":"Alttextilcontainer"}},
{"geometry":{"type":"Point","coordinates":[8.488620581770546,48.99126060202953]},"type":"Feature","properties":{"name":"In der Tasch/Rittnertstraße","gruppenname_de":"Alttextilcontainer"}},
{"geometry":{"type":"Point","coordinates":[8.489145564409107,48.94622343655165]},"type":"Feature","properties":{"name":"Auf der Römerstraße 1","gruppenname_de":"Alttextilcontainer"}},
{"geometry":{"type":"Point","coordinates":[8.490043815912864,48.94436348230683]},"type":"Feature","properties":{"name":"Rudolf-Link-Straße 2 ","gruppenname_de":"Alttextilcontainer"}},
{"geometry":{"type":"Point","coordinates":[8.490312723898196,49.01317395655074]},"type":"Feature","properties":{"name":"Alte Weingartener Straße 63 (Wertstoffstation)","gruppenname_de":"Alttextilcontainer"}},
{"geometry":{"type":"Point","coordinates":[8.491288789268497,49.01254628463856]},"type":"Feature","properties":{"name":"Durlacher Straße (vor Nr. 52)","gruppenname_de":"Alttextilcontainer"}},
{"geometry":{"type":"Point","coordinates":[8.497498014580898,49.012436379389]},"type":"Feature","properties":{"name":"Ziegeleistraße/Am Knittelberg","gruppenname_de":"Alttextilcontainer"}},
{"geometry":{"type":"Point","coordinates":[8.498722650078545,49.01601561127884]},"type":"Feature","properties":{"name":"Im Jäger/Weingartener Straße","gruppenname_de":"Alttextilcontainer"}},
{"geometry":{"type":"Point","coordinates":[8.503526794403937,49.00105362490829]},"type":"Feature","properties":{"name":"Fikentscherstraße/Ringelberghohl","gruppenname_de":"Alttextilcontainer"}},
{"geometry":{"type":"Point","coordinates":[8.503622115537013,48.95159266328489]},"type":"Feature","properties":{"name":"Palmbacher Straße/Rieslingstraße","gruppenname_de":"Alttextilcontainer"}},
{"geometry":{"type":"Point","coordinates":[8.50756245964813,49.008095275909504]},"type":"Feature","properties":{"name":"Im Speitel (vor Nr. 45)","gruppenname_de":"Alttextilcontainer"}},
{"geometry":{"type":"Point","coordinates":[8.512365679607143,49.00661812401211]},"type":"Feature","properties":{"name":"Krappmühlenweg","gruppenname_de":"Alttextilcontainer"}}
]}
